country,state,city,station,last_update,latitude,longitude,CO,NH3,NO2,OZONE,PM10,PM2.5,SO2,num_pollutants_reported,ts_hour,hour_of_day,day_of_week,AQI_official,AQI_simple,AQI_category,PC1,PC2,PC3
India,Andaman and Nicobar,Sri Vijaya Puram,"Police Line, Sri Vijaya Puram - ANPCC",2025-11-24 19:00:00,11.654054,92.734055,10.0,,,9.0,,,,2,2025-11-24 19:00:00,19,0,200.0,10.0,Moderate,-0.7869183841279763,0.43649713800463263,0.840486040620406
India,Andhra_Pradesh,Amaravati,"Secretariat, Amaravati - APPCB",2025-11-24 19:00:00,16.5150833,80.5181667,21.0,4.0,22.0,37.0,99.0,54.0,7.0,7,2025-11-24 19:00:00,19,0,323.8461538461538,99.0,Very Poor,-1.6706309830164336,-0.5632858294537422,0.22270136425528408
India,Andhra_Pradesh,Anantapur,"Gulzarpet, Anantapur - APPCB",2025-11-24 19:00:00,14.675886,77.593027,26.0,4.0,21.0,36.0,48.0,40.0,12.0,7,2025-11-24 19:00:00,19,0,353.1360946745562,48.0,Very Poor,-1.9584132785631456,-0.2718926211789797,0.24632888767802819
India,Andhra_Pradesh,Kadapa,"Yerramukkapalli, Kadapa - APPCB",2025-11-24 19:00:00,14.465052,78.824187,32.0,5.0,23.0,30.0,52.0,46.0,14.0,7,2025-11-24 19:00:00,19,0,388.2840236686391,52.0,Very Poor,-1.7505329521251352,-0.07518297772429745,0.3902302379399274
India,Andhra_Pradesh,Rajamahendravaram,"Anand Kala Kshetram, Rajamahendravaram - APPCB",2025-11-24 19:00:00,16.9872867,81.7363176,31.0,3.0,17.0,23.0,,77.0,13.0,6,2025-11-24 19:00:00,19,0,382.4260355029586,77.0,Very Poor,-1.3479823408164648,0.09126132741450442,-0.0679251612762693
India,Andhra_Pradesh,Tirumala,"Toll Gate, Tirumala - APPCB",2025-11-24 19:00:00,13.67,79.35,28.0,1.0,15.0,7.0,30.0,38.0,6.0,7,2025-11-24 19:00:00,19,0,364.85207100591714,38.0,Very Poor,-2.611325780866619,-0.3791169747321143,0.2330174223866753
India,Andhra_Pradesh,Vijayawada,"HB Colony, Vijayawada - APPCB",2025-11-24 19:00:00,16.536107,80.594233,32.0,4.0,21.0,37.0,87.0,80.0,15.0,7,2025-11-24 19:00:00,19,0,388.2840236686391,87.0,Very Poor,-1.4235048722205375,0.010074120705587244,-0.00652986559420682
India,Andhra_Pradesh,Vijayawada,"Rajiv Gandhi Park, Vijayawada - APPCB",2025-11-24 19:00:00,16.509717,80.612222,33.0,4.0,48.0,28.0,62.0,61.0,13.0,7,2025-11-24 19:00:00,19,0,394.14201183431953,62.0,Very Poor,-1.3803323239867913,-0.13184883485548934,0.5113401653773304
India,Andhra_Pradesh,Vijayawada,"Rajiv Nagar, Vijayawada - APPCB",2025-11-24 19:00:00,16.554731,80.64911,35.0,,10.0,98.0,63.0,,14.0,5,2025-11-24 19:00:00,19,0,407.1875,98.0,Severe,-0.614829587898244,-0.6360949835252722,-0.7115546941179953
India,Andhra_Pradesh,Visakhapatnam,"GVM Corporation, Visakhapatnam - APPCB",2025-11-24 19:00:00,17.72,83.3,20.0,4.0,19.0,86.0,113.0,139.0,14.0,7,2025-11-24 19:00:00,19,0,317.98816568047334,139.0,Very Poor,-0.827554545161703,-0.46565861565475675,-0.7313365396632269
India,Arunachal_Pradesh,Naharlagun,"Naharlagun, Naharlagun - APSPCB",2025-11-24 19:00:00,27.103358,93.679645,9.0,,6.0,5.0,46.0,39.0,8.0,6,2025-11-24 19:00:00,19,0,187.46835443037972,46.0,Moderate,-2.471181157802915,-0.2397033827444654,1.0649001199498846
India,Assam,Byrnihat,"Central Academy for SFS, Byrnihat - PCBA",2025-11-24 19:00:00,26.071318,91.87488,48.0,4.0,7.0,23.0,88.0,109.0,7.0,7,2025-11-24 19:00:00,19,0,487.625,109.0,Severe,-1.3900508138581695,-0.359236777081614,-0.10027976974199942
India,Assam,Guwahati,"IITG, Guwahati - PCBA",2025-11-24 19:00:00,26.2028636,91.70046436,9.0,5.0,2.0,24.0,53.0,,24.0,6,2025-11-24 19:00:00,19,0,187.46835443037972,53.0,Moderate,-1.7901733177713968,0.8461292144366753,0.07733661752219004
India,Assam,Guwahati,"LGBI Airport, Guwahati - PCBA",2025-11-24 19:00:00,26.10887,91.589544,47.0,6.0,15.0,17.0,74.0,65.0,14.0,7,2025-11-24 19:00:00,19,0,481.4375,74.0,Severe,-1.438333182452987,0.10024982183887782,0.396342543800828
India,Assam,Guwahati,"Pan Bazaar, Guwahati - PCBA",2025-11-24 19:00:00,26.1875,91.744194,20.0,,,17.0,33.0,40.0,34.0,5,2025-11-24 19:00:00,19,0,317.98816568047334,40.0,Very Poor,-1.7075222466741202,1.3930411885123621,0.9137661596625924
India,Assam,Guwahati,"Railway Colony, Guwahati - PCBA",2025-11-24 19:00:00,26.181742,91.78063,28.0,,3.0,,73.0,85.0,32.0,5,2025-11-24 19:00:00,19,0,364.85207100591714,85.0,Very Poor,-1.3488721619470463,1.0520991658581385,-0.14843415247830566
India,Assam,Nagaon,"Christianpatty, Nagaon - PCBA",2025-11-24 19:00:00,26.349082,92.68449,,4.0,1.0,9.0,47.0,44.0,13.0,6,2025-11-24 19:00:00,19,0,72.9655172413793,47.0,Satisfactory,-2.172236499557099,0.10665996637427053,0.22012224759711563
India,Assam,Nalbari,"Bata Chowk, Nalbari - PCBA",2025-11-24 19:00:00,26.446912,91.439057,21.0,6.0,14.0,20.0,59.0,46.0,8.0,7,2025-11-24 19:00:00,19,0,323.8461538461538,59.0,Very Poor,-2.024918017078232,-0.37950792641135367,0.7076790590776758
India,Assam,Silchar,"Tarapur, Silchar - PCBA",2025-11-24 19:00:00,24.82827,92.79525,41.0,1.0,20.0,6.0,69.0,54.0,5.0,7,2025-11-24 19:00:00,19,0,444.3125,69.0,Severe,-2.0618096014572043,-0.39152352539589835,0.09459600466875448
India,Assam,Sivasagar,"Girls College, Sivasagar - PCBA",2025-11-24 19:00:00,26.987634,94.636574,20.0,9.0,24.0,41.0,41.0,34.0,9.0,7,2025-11-24 19:00:00,19,0,317.98816568047334,41.0,Very Poor,-1.6813710601938658,-0.6029631301879939,1.0084926069134643
India,Bihar,Araria,"Kharahiya Basti, Araria - BSPCB",2025-11-24 19:00:00,26.146529,87.454184,31.0,8.0,12.0,10.0,112.0,178.0,20.0,7,2025-11-24 19:00:00,19,0,382.4260355029586,178.0,Very Poor,-0.8226698628921602,0.734443676163738,0.4968845842125213
India,Bihar,Arrah,"New DM Office, Arrah - BSPCB",2025-11-24 19:00:00,25.5626095,84.663264,51.0,1.0,7.0,8.0,143.0,167.0,10.0,7,2025-11-24 19:00:00,19,0,336.30232558139534,167.0,Very Poor,-1.0674858366432243,0.15297453665875213,-0.5925988233031606
India,Bihar,Aurangabad,"Gurdeo Nagar, Aurangabad - BSPCB",2025-11-24 19:00:00,24.75746,84.366208,102.0,1.0,8.0,28.0,,,13.0,5,2025-11-24 19:00:00,19,0,28.0,102.0,Good,-0.14283103896140914,0.14565396646271014,-1.3266245202399036
India,Bihar,Begusarai,"Lohiyanagar, Begusarai - BSPCB",2025-11-24 19:00:00,25.42742023,86.13886079,32.0,5.0,20.0,34.0,55.0,80.0,14.0,7,2025-11-24 19:00:00,19,0,388.2840236686391,80.0,Very Poor,-1.5836784435141602,-0.07391707176261932,0.22508163949460244
India,Bihar,Bettiah,"Kamalnath Nagar, Bettiah - BSPCB",2025-11-24 19:00:00,26.80365,84.51954,94.0,1.0,8.0,22.0,121.0,141.0,8.0,7,2025-11-24 19:00:00,19,0,316.3488372093023,141.0,Very Poor,-0.5865990692509908,-0.1914815606312292,-1.0328833349367679
India,Bihar,Bhagalpur,"DM Office_Kachari Chowk, Bhagalpur - BSPCB",2025-11-24 19:00:00,25.251013,86.989001,13.0,1.0,8.0,16.0,147.0,76.0,41.0,7,2025-11-24 19:00:00,19,0,242.6086956521739,147.0,Poor,-1.7420144656624055,2.1704558192853693,-0.48798683898173206
India,Bihar,Bhagalpur,"Mayaganj, Bhagalpur - BSPCB",2025-11-24 19:00:00,25.265194,87.012947,73.0,10.0,7.0,79.0,117.0,127.0,52.0,7,2025-11-24 19:00:00,19,0,305.6046511627907,127.0,Very Poor,0.40542833221005287,2.213300599104803,-0.807600919586077
India,Bihar,Bihar Sharif,"D M Colony, Bihar Sharif - BSPCB",2025-11-24 19:00:00,25.204762,85.51496,16.0,,9.0,27.0,82.0,113.0,10.0,6,2025-11-24 19:00:00,19,0,285.6521739130435,113.0,Poor,-1.5903253690796093,-0.21690645478781334,0.5017755664278749
India,Bihar,Buxar,"Charitra Van, Buxar - BSPCB",2025-11-24 19:00:00,25.56752,83.966379,24.0,3.0,9.0,83.0,120.0,154.0,6.0,7,2025-11-24 19:00:00,19,0,341.42011834319527,154.0,Very Poor,-0.9373067443093049,-0.9477864699253565,-0.9358242737833636
India,Bihar,Chhapra,"Darshan Nagar, Chhapra - BSPCB",2025-11-24 19:00:00,25.7808257,84.7446768,11.0,6.0,3.0,35.0,69.0,55.0,21.0,7,2025-11-24 19:00:00,19,0,213.91304347826087,69.0,Poor,-2.011948544928218,0.4219751997859561,0.3007428688721077
India,Bihar,Gaya,"Collectorate, Gaya - BSPCB",2025-11-24 19:00:00,24.7955,84.9994,46.0,,9.0,19.0,,222.0,11.0,5,2025-11-24 19:00:00,19,0,475.25,222.0,Severe,-0.3229264447791847,0.10555988283989587,-0.015769843632664378
India,Bihar,Gaya,"Kareemganj, Gaya - BSPCB",2025-11-24 19:00:00,24.792403,84.992416,36.0,5.0,5.0,23.0,208.0,180.0,14.0,7,2025-11-24 19:00:00,19,0,413.375,208.0,Severe,-0.4173004460736291,0.3315956325270887,-0.31596426956847645
India,Bihar,Gaya,"SFTI Kusdihra, Gaya - BSPCB",2025-11-24 19:00:00,24.762518,84.982348,30.0,3.0,19.0,41.0,81.0,42.0,8.0,7,2025-11-24 19:00:00,19,0,376.5680473372781,81.0,Very Poor,-1.7806843468914566,-0.5520986727268428,-0.03385533339737579
India,Bihar,Hajipur,"Industrial Area, Hajipur - BSPCB",2025-11-24 19:00:00,25.697189,85.2459,87.0,8.0,32.0,88.0,111.0,211.0,4.0,7,2025-11-24 19:00:00,19,0,370.0697674418605,211.0,Very Poor,0.889851021448731,-1.198646926137899,-0.7070010536785601
India,Bihar,Katihar,"Mirchaibari, Katihar - BSPCB",2025-11-24 19:00:00,25.560083,87.553265,88.0,1.0,16.0,7.0,91.0,111.0,23.0,7,2025-11-24 19:00:00,19,0,269.2758620689655,111.0,Poor,-0.9072516952842823,0.9393820990341671,-0.7339586490612435
India,Bihar,Kishanganj,"SDM Office_Khagra, Kishanganj - BSPCB",2025-11-24 19:00:00,26.0881305,87.93840336,21.0,3.0,11.0,16.0,103.0,45.0,7.0,7,2025-11-24 19:00:00,19,0,323.8461538461538,103.0,Very Poor,-2.0658565187924784,-0.3247194956386284,0.25249911416512966
India,Bihar,Manguraha,"Forest Rest House, Manguraha - BSPCB",2025-11-24 19:00:00,27.308328,84.531742,33.0,1.0,7.0,18.0,139.0,145.0,17.0,7,2025-11-24 19:00:00,19,0,394.14201183431953,145.0,Very Poor,-1.3338913401798482,0.5207737124383369,-0.5842061774367473
India,Bihar,Motihari,"Gandak Colony, Motihari - BSPCB",2025-11-24 19:00:00,26.63086,84.90051,48.0,3.0,11.0,4.0,120.0,131.0,3.0,7,2025-11-24 19:00:00,19,0,487.625,131.0,Severe,-1.2898981719197562,-0.3859838511115743,-0.0024627508445623277
India,Bihar,Munger,"Town Hall, Munger - BSPCB",2025-11-24 19:00:00,25.376776,86.471523,24.0,6.0,5.0,18.0,131.0,187.0,17.0,7,2025-11-24 19:00:00,19,0,351.6511627906977,187.0,Very Poor,-0.9682558778891092,0.506711223720663,0.08077848486578222
India,Bihar,Muzaffarpur,"Buddha Colony, Muzaffarpur - BSPCB",2025-11-24 19:00:00,26.11442,85.39813,54.0,9.0,34.0,120.0,119.0,232.0,5.0,7,2025-11-24 19:00:00,19,0,386.1860465116279,232.0,Very Poor,0.9058043202179238,-1.4308801172953711,-0.7466691040301325
India,Bihar,Muzaffarpur,"MIT-Daudpur Kothi, Muzaffarpur - BSPCB",2025-11-24 19:00:00,26.1403345,85.3650192,61.0,1.0,17.0,48.0,70.0,92.0,8.0,7,2025-11-24 19:00:00,19,0,204.41379310344828,92.0,Poor,-1.287452374745295,-0.569091236939694,-0.787058514167363
India,Bihar,Muzaffarpur,"Muzaffarpur Collectorate, Muzaffarpur - BSPCB",2025-11-24 19:00:00,26.1209,85.3647,14.0,,10.0,31.0,,99.0,4.0,5,2025-11-24 19:00:00,19,0,256.95652173913044,99.0,Poor,-1.2986231836757782,-0.6238622691991658,0.46196948623427314
India,Bihar,Patna,"DRM Office Danapur, Patna - BSPCB",2025-11-24 19:00:00,25.586562,85.043586,61.0,12.0,59.0,37.0,155.0,156.0,9.0,7,2025-11-24 19:00:00,19,0,327.86046511627904,156.0,Very Poor,0.8166026404308631,-0.4156853182899276,1.036268359513196
India,Bihar,Patna,"Govt. High School Shikarpur, Patna - BSPCB",2025-11-24 19:00:00,25.592539,85.227158,81.0,5.0,29.0,11.0,90.0,66.0,10.0,7,2025-11-24 19:00:00,19,0,118.06896551724138,90.0,Moderate,-0.8075020012541128,-0.12210816538051353,0.2053352335240529
India,Bihar,Patna,"IGSC Planetarium Complex, Patna - BSPCB",2025-11-24 19:00:00,25.610369,85.132568,49.0,,,28.0,,,,2,2025-11-24 19:00:00,19,0,493.8125,49.0,Severe,-0.07319782376430016,0.23432956786091286,0.24280005978562139
India,Bihar,Patna,"Muradpur, Patna - BSPCB",2025-11-24 19:00:00,25.619651,85.147382,45.0,5.0,11.0,38.0,129.0,171.0,9.0,7,2025-11-24 19:00:00,19,0,469.0625,171.0,Severe,-0.645296829813151,-0.2813141350942805,-0.3167703414747245
India,Bihar,Patna,"Rajbansi Nagar, Patna - BSPCB",2025-11-24 19:00:00,25.599486,85.113666,64.0,5.0,127.0,25.0,128.0,140.0,8.0,7,2025-11-24 19:00:00,19,0,315.5813953488372,140.0,Very Poor,0.8763195433506393,-0.4540675162585962,1.063130312019653
India,Bihar,Patna,"Samanpura, Patna - BSPCB",2025-11-24 19:00:00,25.596727,85.085624,20.0,6.0,44.0,25.0,185.0,152.0,2.0,7,2025-11-24 19:00:00,19,0,324.7906976744186,185.0,Very Poor,-0.40213837653209616,-0.6583890241742089,0.6010724250129456
India,Bihar,Purnia,"Mariam Nagar, Purnia - BSPCB",2025-11-24 19:00:00,25.366336,87.117468,57.0,3.0,6.0,40.0,86.0,110.0,16.0,7,2025-11-24 19:00:00,19,0,265.8620689655172,110.0,Poor,-1.1663471761978519,0.10869239735076983,-0.6469274773338876
India,Bihar,Rajgir,"Dangi Tola, Rajgir - BSPCB",2025-11-24 19:00:00,25.0328,85.41948,91.0,6.0,9.0,32.0,106.0,149.0,21.0,7,2025-11-24 19:00:00,19,0,322.48837209302326,149.0,Very Poor,-0.1330719611496892,0.5579372686611755,-0.5718608867180787
India,Bihar,Saharsa,"Police Line, Saharsa - BSPCB",2025-11-24 19:00:00,25.892357,86.590325,39.0,4.0,7.0,4.0,128.0,144.0,17.0,7,2025-11-24 19:00:00,19,0,431.9375,144.0,Severe,-1.1979837226395793,0.6174802453415839,-0.02089119415364671
India,Bihar,Samastipur,"DM Office_Kasipur, Samastipur - BSPCB",2025-11-24 19:00:00,25.859655,85.77944,,2.0,8.0,8.0,85.0,92.0,28.0,6,2025-11-24 19:00:00,19,0,204.41379310344828,92.0,Poor,-1.6914727811622274,1.2686994196174668,-0.2912064900544452
India,Bihar,Sasaram,"Dada Peer, Sasaram - BSPCB",2025-11-24 19:00:00,24.952822,84.002396,46.0,4.0,2.0,27.0,161.0,77.0,4.0,7,2025-11-24 19:00:00,19,0,475.25,161.0,Severe,-1.1796966448121236,-0.5519207326236536,-0.21734672838785823
India,Bihar,Siwan,"Chitragupta Nagar, Siwan - BSPCB",2025-11-24 19:00:00,26.2271665,84.3570427,121.0,1.0,1.0,8.0,77.0,90.0,4.0,7,2025-11-24 19:00:00,19,0,200.0,121.0,Moderate,-0.9174109961158484,-0.4232205112190464,-0.9371253856436274
India,Chandigarh,Chandigarh,"Sector 22, Chandigarh - CPCC",2025-11-24 19:00:00,30.735567,76.775714,77.0,16.0,72.0,80.0,110.0,149.0,17.0,7,2025-11-24 19:00:00,19,0,322.48837209302326,149.0,Very Poor,1.5956806735092697,-0.41590173317665485,1.0278377962086134
India,Chandigarh,Chandigarh,"Sector-25, Chandigarh - CPCC",2025-11-24 19:00:00,30.751462,76.762879,32.0,7.0,22.0,45.0,117.0,156.0,9.0,7,2025-11-24 19:00:00,19,0,388.2840236686391,156.0,Very Poor,-0.6301846628282789,-0.41740825278868243,0.15657068900456458
India,Chandigarh,Chandigarh,"Sector-53, Chandigarh - CPCC",2025-11-24 19:00:00,30.719859,76.738637,56.0,22.0,99.0,5.0,123.0,167.0,10.0,7,2025-11-24 19:00:00,19,0,336.30232558139534,167.0,Very Poor,1.634847876006922,-0.21599224057261043,3.340521056770632
India,Chhattisgarh,Bhilai,"32Bungalows, Bhilai - CECB",2025-11-24 19:00:00,21.194815,81.31477,26.0,3.0,54.0,60.0,68.0,39.0,14.0,7,2025-11-24 19:00:00,19,0,353.1360946745562,68.0,Very Poor,-1.2949831687433995,-0.40059307045197395,0.10799100037149839
India,Chhattisgarh,Bhilai,"Civic Center, Bhilai - Bhilai Steel Plant",2025-11-24 19:00:00,21.185571,81.343175,29.0,3.0,9.0,12.0,54.0,52.0,8.0,7,2025-11-24 19:00:00,19,0,370.7100591715976,54.0,Very Poor,-2.26268338053764,-0.2597777765148825,0.2713753635129876
India,Chhattisgarh,Bhilai,"Hathkhoj, Bhilai - CECB",2025-11-24 19:00:00,21.224231,81.40835,26.0,,,25.0,,,,2,2025-11-24 19:00:00,19,0,353.1360946745562,26.0,Very Poor,-0.431509334634944,0.27005081879045134,0.4869673373425133
India,Chhattisgarh,Bilaspur,"Mangala, Bilaspur - NTPC",2025-11-24 19:00:00,22.08815,82.13737,34.0,,23.0,,98.0,83.0,20.0,5,2025-11-24 19:00:00,19,0,400.0,98.0,Very Poor,-0.9391751961514455,0.19950087226702345,0.1100441742622641
India,Chhattisgarh,Chhal,"Nawapara SECL Colony, Chhal - CECB",2025-11-24 19:00:00,22.118125,83.140608,34.0,5.0,9.0,104.0,83.0,74.0,18.0,7,2025-11-24 19:00:00,19,0,400.0,104.0,Very Poor,-0.9951932669191127,-0.4617397480631751,-0.9180609287590623
India,Chhattisgarh,Korba,"Rampur, Korba - CECB",2025-11-24 19:00:00,22.368195,82.746431,23.0,2.0,14.0,,85.0,51.0,9.0,6,2025-11-24 19:00:00,19,0,335.5621301775148,85.0,Very Poor,-1.8729136353589986,-0.5516267097868874,-0.3358485553096307
India,Chhattisgarh,Korba,"Urja Nagar, Korba - CECB",2025-11-24 19:00:00,22.348441,82.549611,28.0,2.0,46.0,36.0,72.0,55.0,,6,2025-11-24 19:00:00,19,0,364.85207100591714,72.0,Very Poor,-1.5187638014207179,0.005739212376686718,0.12123147681647786
India,Chhattisgarh,Kunjemura,"OP Jindal School, Kunjemura - CECB",2025-11-24 19:00:00,22.12665,83.483212,27.0,2.0,26.0,48.0,80.0,56.0,9.0,7,2025-11-24 19:00:00,19,0,358.9940828402367,80.0,Very Poor,-1.6908609903750644,-0.541353371211349,-0.1972600837892706
India,Chhattisgarh,Milupara,"Govt. Higher Secondary School, Milupara - CECB",2025-11-24 19:00:00,22.1910172,83.5197009,29.0,,,98.0,,,,2,2025-11-24 19:00:00,19,0,370.7100591715976,98.0,Very Poor,0.16919135435956528,-0.4735665313551725,-0.5033729239398674
India,Chhattisgarh,Raipur,"AIIMS, Raipur - CECB",2025-11-24 19:00:00,21.258815,81.578979,42.0,4.0,74.0,3.0,59.0,30.0,7.0,7,2025-11-24 19:00:00,19,0,450.5,74.0,Severe,-1.30404790952855,-0.3793019792859616,1.1881508566785348
India,Chhattisgarh,Raipur,"Krishak Nagar, Raipur - CECB",2025-11-24 19:00:00,21.237755,81.705301,23.0,2.0,21.0,,55.0,27.0,8.0,6,2025-11-24 19:00:00,19,0,335.5621301775148,55.0,Very Poor,-2.0809567593817113,-0.6908840686124291,-0.14274279785511365
India,Chhattisgarh,Raipur,"Siltara Phase-II, Raipur - CECB",2025-11-24 19:00:00,21.371751,81.664929,35.0,3.0,21.0,4.0,100.0,32.0,5.0,7,2025-11-24 19:00:00,19,0,407.1875,100.0,Severe,-1.9151419032902786,-0.3795074539089872,0.45284099598898647
India,Chhattisgarh,Tumidih,"OP Jindal Industrial Park, Tumidih - CECB",2025-11-24 19:00:00,22.06631475,83.33820077,29.0,2.0,46.0,81.0,109.0,85.0,9.0,7,2025-11-24 19:00:00,19,0,370.7100591715976,109.0,Very Poor,-0.8423401520057107,-0.8511102004703628,-0.5401580002285697
India,Delhi,Delhi,"Alipur, Delhi - DPCC",2025-11-24 19:00:00,28.815329,77.15301,90.0,20.0,82.0,54.0,366.0,382.0,10.0,7,2025-11-24 19:00:00,19,0,424.76,382.0,Severe,4.594402923689968,-0.19023132604304896,1.038971072729728
India,Delhi,Delhi,"Anand Vihar, Delhi - DPCC",2025-11-24 19:00:00,28.647622,77.315809,71.0,22.0,150.0,19.0,389.0,418.0,48.0,7,2025-11-24 19:00:00,19,0,431.24,418.0,Severe,5.632507589258732,2.7627946394742895,2.1834552373348997
India,Delhi,Delhi,"Ashok Vihar, Delhi - DPCC",2025-11-24 19:00:00,28.695381,77.181665,63.0,1.0,111.0,89.0,375.0,408.0,17.0,7,2025-11-24 19:00:00,19,0,429.44,408.0,Severe,3.6294158205378184,0.13477579718979307,-1.6047414791296934
India,Delhi,Delhi,"Aya Nagar, Delhi - IMD",2025-11-24 19:00:00,28.4706914,77.1099364,52.0,,44.0,120.0,355.0,352.0,,5,2025-11-24 19:00:00,19,0,419.36,355.0,Severe,2.8860837825898895,-0.29319360042557424,-1.7073629801988455
India,Delhi,Delhi,"Bawana, Delhi - DPCC",2025-11-24 19:00:00,28.7762,77.051074,96.0,7.0,49.0,98.0,325.0,401.0,13.0,7,2025-11-24 19:00:00,19,0,428.18,401.0,Severe,3.4701401558903013,-0.2638199805165528,-1.7449815015457149
India,Delhi,Delhi,"Burari Crossing, Delhi - IMD",2025-11-24 19:00:00,28.7256504,77.2011573,33.0,,74.0,123.0,348.0,401.0,,5,2025-11-24 19:00:00,19,0,428.18,401.0,Severe,3.203636641819753,-0.3303935047866583,-1.3361333193205045
India,Delhi,Delhi,"CRRI Mathura Road, Delhi - IMD",2025-11-24 19:00:00,28.5512005,77.2735737,41.0,,40.0,74.0,364.0,361.0,,5,2025-11-24 19:00:00,19,0,444.3125,364.0,Severe,2.418922478183694,0.20318059072368835,-1.0821926525582009
India,Delhi,Delhi,"Chandni Chowk, Delhi - IITM",2025-11-24 19:00:00,28.656756,77.227234,86.0,12.0,94.0,69.0,344.0,,10.0,6,2025-11-24 19:00:00,19,0,294.0,344.0,Poor,3.059759562037379,-0.5192342234703786,0.42733999521568383
India,Delhi,Delhi,"DTU, Delhi - CPCB",2025-11-24 19:00:00,28.7500499,77.1112615,57.0,11.0,62.0,28.0,317.0,414.0,31.0,7,2025-11-24 19:00:00,19,0,430.52,414.0,Severe,2.965888629643143,1.661608125097691,0.013656997361066634
India,Delhi,Delhi,"Dr. Karni Singh Shooting Range, Delhi - DPCC",2025-11-24 19:00:00,28.498571,77.26484,45.0,9.0,109.0,54.0,297.0,374.0,23.0,7,2025-11-24 19:00:00,19,0,469.0625,374.0,Severe,3.088362225301573,0.716397417237908,0.23556492565745485
India,Delhi,Delhi,"Dwarka-Sector 8, Delhi - DPCC ",2025-11-24 19:00:00,28.5710274,77.0719006,160.0,15.0,102.0,95.0,334.0,392.0,17.0,7,2025-11-24 19:00:00,19,0,426.56,392.0,Severe,5.707903138180549,-0.1397098278821414,-0.6254677541741667
India,Delhi,Delhi,"IGI Airport (T3), Delhi - IMD",2025-11-24 19:00:00,28.5627763,77.1180053,48.0,,190.0,121.0,326.0,323.0,,5,2025-11-24 19:00:00,19,0,487.625,326.0,Severe,4.4134895178294435,-0.6136265160709737,0.06178553372744274
India,Delhi,Delhi,"IHBAS, Dilshad Garden, Delhi - CPCB",2025-11-24 19:00:00,28.6811736,77.3025234,61.0,5.0,53.0,24.0,276.0,235.0,12.0,7,2025-11-24 19:00:00,19,0,388.48837209302326,276.0,Very Poor,1.2270223310559516,0.2228544268608249,-0.23069070141631923
India,Delhi,Delhi,"ITO, Delhi - CPCB",2025-11-24 19:00:00,28.628624,77.24106,58.0,5.0,108.0,50.0,327.0,399.0,20.0,7,2025-11-24 19:00:00,19,0,427.82,399.0,Severe,3.2099192716515352,0.6447912443006588,-0.46035422552478233
India,Delhi,Delhi,"Jahangirpuri, Delhi - DPCC",2025-11-24 19:00:00,28.73282,77.170633,77.0,10.0,140.0,103.0,392.0,421.0,37.0,7,2025-11-24 19:00:00,19,0,431.78,421.0,Severe,5.286919991474208,1.2822106721430488,-0.6278663004115005
India,Delhi,Delhi,"Jawaharlal Nehru Stadium, Delhi - DPCC",2025-11-24 19:00:00,28.58028,77.233829,65.0,11.0,113.0,140.0,376.0,383.0,11.0,7,2025-11-24 19:00:00,19,0,424.94,383.0,Severe,4.679346258348832,-0.9370501392513663,-0.7889235386039248
India,Delhi,Delhi,"Lodhi Road, Delhi - IITM",2025-11-24 19:00:00,28.588333,77.221667,,,73.0,,213.0,344.0,16.0,4,2025-11-24 19:00:00,19,0,417.92,344.0,Severe,1.6959265633011609,0.2161268692629926,-0.12324375337265991
India,Delhi,Delhi,"Lodhi Road, Delhi - IMD",2025-11-24 19:00:00,28.5918245,77.2273074,73.0,,33.0,86.0,278.0,342.0,,5,2025-11-24 19:00:00,19,0,417.56,342.0,Severe,2.279505801040173,-0.028570724305639915,-1.4126240230500993
India,Delhi,Delhi,"Major Dhyan Chand National Stadium, Delhi - DPCC",2025-11-24 19:00:00,28.611281,77.237738,66.0,17.0,105.0,164.0,308.0,345.0,23.0,7,2025-11-24 19:00:00,19,0,418.1,345.0,Severe,4.718085479090868,-0.500502662247626,-0.3096925304080731
India,Delhi,Delhi,"Mandir Marg, Delhi - DPCC",2025-11-24 19:00:00,28.636429,77.201067,75.0,24.0,76.0,76.0,277.0,314.0,115.0,7,2025-11-24 19:00:00,19,0,412.52,314.0,Severe,4.599341325738261,6.766431115498603,0.5505373768620928
India,Delhi,Delhi,"Mundka, Delhi - DPCC",2025-11-24 19:00:00,28.684678,77.076574,75.0,15.0,107.0,64.0,269.0,403.0,16.0,7,2025-11-24 19:00:00,19,0,428.54,403.0,Severe,3.948103090671901,0.05467086256402198,0.6957362636486153
India,Delhi,Delhi,"NSIT Dwarka, Delhi - CPCB",2025-11-24 19:00:00,28.60909,77.0325413,36.0,13.0,67.0,43.0,229.0,321.0,16.0,7,2025-11-24 19:00:00,19,0,413.78,321.0,Severe,1.9310090305723464,0.24128808769636265,0.845660667642311
India,Delhi,Delhi,"Najafgarh, Delhi - DPCC",2025-11-24 19:00:00,28.570173,76.933762,60.0,9.0,58.0,21.0,212.0,349.0,18.0,7,2025-11-24 19:00:00,19,0,418.82,349.0,Severe,1.7347607429903515,0.6659340070298801,0.22235353624342633
India,Delhi,Delhi,"Narela, Delhi - DPCC",2025-11-24 19:00:00,28.822836,77.101981,38.0,19.0,60.0,99.0,340.0,404.0,20.0,7,2025-11-24 19:00:00,19,0,428.72,404.0,Severe,3.8292039404320493,0.10671961327933706,0.4160524201883168
India,Delhi,Delhi,"Nehru Nagar, Delhi - DPCC",2025-11-24 19:00:00,28.56789,77.250515,131.0,14.0,63.0,140.0,336.0,400.0,31.0,7,2025-11-24 19:00:00,19,0,428.0,400.0,Severe,5.188888725156487,0.47949536579070007,-1.7040741916341633
India,Delhi,Delhi,"North Campus, DU, Delhi - IMD",2025-11-24 19:00:00,28.6573814,77.1585447,93.0,,122.0,131.0,342.0,385.0,,5,2025-11-24 19:00:00,19,0,425.3,385.0,Severe,4.650011126172698,-0.5300848949359227,-1.3932744185559496
India,Delhi,Delhi,"Okhla Phase-2, Delhi - DPCC",2025-11-24 19:00:00,28.530785,77.271255,75.0,12.0,148.0,158.0,338.0,368.0,16.0,7,2025-11-24 19:00:00,19,0,422.24,368.0,Severe,5.224098795207647,-0.8987961538770599,-0.5414297593482192
India,Delhi,Delhi,"Patparganj, Delhi - DPCC",2025-11-24 19:00:00,28.623763,77.287209,90.0,14.0,131.0,113.0,363.0,397.0,8.0,7,2025-11-24 19:00:00,19,0,427.46,397.0,Severe,5.263486463938195,-0.9413366800292817,-0.018736648207448133
India,Delhi,Delhi,"Punjabi Bagh, Delhi - DPCC",2025-11-24 19:00:00,28.674045,77.131023,60.0,5.0,64.0,71.0,362.0,402.0,73.0,7,2025-11-24 19:00:00,19,0,428.36,402.0,Severe,3.400690912788708,4.2703225239158,-1.8773287981426796
India,Delhi,Delhi,"Pusa, Delhi - DPCC",2025-11-24 19:00:00,28.639652,77.146275,76.0,6.0,113.0,2.0,324.0,380.0,8.0,7,2025-11-24 19:00:00,19,0,424.4,380.0,Severe,3.0623282329757333,0.2454121059844214,0.37960439580078614
India,Delhi,Delhi,"Pusa, Delhi - IMD",2025-11-24 19:00:00,28.63611,77.173332,80.0,,71.0,91.0,316.0,374.0,,5,2025-11-24 19:00:00,19,0,423.32,374.0,Severe,3.2881972512162383,-0.07238472729479409,-1.2511449773682204
India,Delhi,Delhi,"R K Puram, Delhi - DPCC",2025-11-24 19:00:00,28.563262,77.186937,65.0,6.0,87.0,341.0,316.0,396.0,11.0,7,2025-11-24 19:00:00,19,0,427.28,396.0,Severe,5.19730132128517,-2.9400609935709268,-4.34103174986652
India,Delhi,Delhi,"Rohini, Delhi - DPCC",2025-11-24 19:00:00,28.732528,77.11992,69.0,22.0,69.0,159.0,396.0,422.0,17.0,7,2025-11-24 19:00:00,19,0,431.96,422.0,Severe,5.483499201730895,-0.6881979529291126,-0.2451372981810081
India,Delhi,Delhi,"Shadipur, Delhi - CPCB",2025-11-24 19:00:00,28.6514781,77.1473105,54.0,15.0,121.0,24.0,348.0,293.0,13.0,7,2025-11-24 19:00:00,19,0,408.74,348.0,Severe,3.4673395988652924,0.21133554316065642,1.6993642540334057
India,Delhi,Delhi,"Sirifort, Delhi - CPCB",2025-11-24 19:00:00,28.5504249,77.2159377,49.0,10.0,56.0,15.0,318.0,374.0,25.0,7,2025-11-24 19:00:00,19,0,493.8125,374.0,Severe,2.3793548594563485,1.3567125736794143,0.2008811292570341
India,Delhi,Delhi,"Sonia Vihar, Delhi - DPCC",2025-11-24 19:00:00,28.710508,77.249485,91.0,7.0,59.0,149.0,344.0,400.0,13.0,7,2025-11-24 19:00:00,19,0,428.0,400.0,Severe,4.025723468044429,-0.778722378540863,-2.2927996853462282
India,Delhi,Delhi,"Sri Aurobindo Marg, Delhi - DPCC",2025-11-24 19:00:00,28.531346,77.190156,61.0,6.0,32.0,99.0,210.0,337.0,9.0,7,2025-11-24 19:00:00,19,0,416.66,337.0,Severe,1.6560411481615815,-0.6984898215961158,-1.392732015457099
India,Delhi,Delhi,"Vivek Vihar, Delhi - DPCC",2025-11-24 19:00:00,28.672342,77.31526,33.0,13.0,91.0,16.0,364.0,417.0,15.0,7,2025-11-24 19:00:00,19,0,431.06,417.0,Severe,3.243643556667843,0.6501476808458874,1.0650534619316696
India,Delhi,Delhi,"Wazirpur, Delhi - DPCC",2025-11-24 19:00:00,28.699793,77.165453,71.0,14.0,114.0,75.0,410.0,418.0,9.0,7,2025-11-24 19:00:00,19,0,431.24,418.0,Severe,4.864089271043177,-0.3779508773218062,0.3237685211596847
India,Gujarat,Ahmedabad,"Chandkheda, Ahmedabad - IITM",2025-11-24 19:00:00,23.107969,72.574648,28.0,5.0,157.0,97.0,143.0,113.0,18.0,7,2025-11-24 19:00:00,19,0,364.85207100591714,157.0,Very Poor,1.3194027076526207,-0.537718725255473,0.6947192259095942
India,Gujarat,Ahmedabad,"Gyaspur, Ahmedabad - IITM",2025-11-24 19:00:00,22.977134,72.553024,68.0,9.0,89.0,33.0,162.0,118.0,22.0,7,2025-11-24 19:00:00,19,0,293.17241379310343,162.0,Poor,1.0010778669259355,0.48659339810687324,0.8840347123249906
India,Gujarat,Ahmedabad,"Maninagar, Ahmedabad - GPCB",2025-11-24 19:00:00,23.002657,72.591912,38.0,,24.0,51.0,86.0,22.0,51.0,6,2025-11-24 19:00:00,19,0,425.75,86.0,Severe,-1.0217332126495362,2.3025306433010106,-0.0879128158121123
India,Gujarat,Ahmedabad,"Raikhad, Ahmedabad - IITM",2025-11-24 19:00:00,23.020509,72.579261,27.0,6.0,26.0,69.0,201.0,260.0,20.0,7,2025-11-24 19:00:00,19,0,402.8,260.0,Severe,0.5154315675236382,0.3114869223593984,-0.6958698326044631
India,Gujarat,Ahmedabad,"Rakhial, Ahmedabad - IITM",2025-11-24 19:00:00,23.016834,72.625775,52.0,4.0,37.0,59.0,141.0,231.0,34.0,7,2025-11-24 19:00:00,19,0,385.4186046511628,231.0,Very Poor,0.38985905081309846,1.2974960850605501,-0.9180952200252428
India,Gujarat,Ahmedabad,"SAC ISRO Bopal, Ahmedabad - IITM",2025-11-24 19:00:00,23.041137,72.456691,24.0,12.0,36.0,46.0,137.0,119.0,4.0,7,2025-11-24 19:00:00,19,0,341.42011834319527,137.0,Very Poor,-0.26372159017902214,-0.8671412647434082,1.1536470595134314
India,Gujarat,Ahmedabad,"SAC ISRO Satellite, Ahmedabad - IITM",2025-11-24 19:00:00,23.023389,72.515201,38.0,,,47.0,,,,2,2025-11-24 19:00:00,19,0,425.75,47.0,Severe,-0.0886580486273746,0.04344341290939185,0.08982038068155439
India,Gujarat,Ahmedabad,"SVPI Airport Hansol, Ahmedabad - IITM",2025-11-24 19:00:00,23.076793,72.627874,38.0,,57.0,29.0,200.0,161.0,10.0,6,2025-11-24 19:00:00,19,0,425.75,200.0,Severe,0.30056338257904586,-0.14594396620370242,0.507362033864618
India,Gujarat,Ankleshwar,"GIDC, Ankleshwar - GPCB",2025-11-24 19:00:00,21.613267,73.010555,65.0,8.0,22.0,43.0,153.0,267.0,30.0,7,2025-11-24 19:00:00,19,0,404.06,267.0,Severe,0.7778668736582237,1.2094033988360862,-0.4992938560997592
India,Gujarat,Gandhinagar,"IIPHG Lekawada, Gandhinagar - IITM",2025-11-24 19:00:00,23.243639,72.68994,21.0,2.0,9.0,41.0,121.0,136.0,5.0,7,2025-11-24 19:00:00,19,0,323.8461538461538,136.0,Very Poor,-1.4605013129475914,-0.5961178232040361,-0.4437502030542023
India,Gujarat,Gandhinagar,"Sector-10, Gandhinagar - GPCB",2025-11-24 19:00:00,23.221714,72.654328,34.0,2.0,25.0,57.0,91.0,87.0,11.0,7,2025-11-24 19:00:00,19,0,400.0,91.0,Very Poor,-1.310441235602462,-0.44956960857123834,-0.49695569388432426
India,Gujarat,Nandesari,"GIDC, Nandesari - Nandesari Ind. Association",2025-11-24 19:00:00,22.410802,73.097923,,,21.0,,166.0,260.0,,3,2025-11-24 19:00:00,19,0,402.8,260.0,Severe,0.349974286497235,0.14797451390708677,-0.4380896564285469
India,Gujarat,Surat,"Science Center, Surat - SMC",2025-11-24 19:00:00,21.170046,72.795405,41.0,,8.0,,177.0,61.0,30.0,5,2025-11-24 19:00:00,19,0,444.3125,177.0,Severe,-0.590338711575146,0.9922010809253203,-0.31613946023951456
India,Gujarat,Vapi,"Phase-1 GIDC, Vapi - GPCB",2025-11-24 19:00:00,20.362421,72.918013,,,,16.0,,,,1,2025-11-24 19:00:00,19,0,16.0,16.0,Good,-0.2684223839625322,0.3580607010263077,0.4644356221621532
India,Gujarat,Vatva,"Phase-4 GIDC, Vatva - GPCB",2025-11-24 19:00:00,22.969611,72.6435,14.0,8.0,48.0,58.0,121.0,178.0,35.0,7,2025-11-24 19:00:00,19,0,344.74418604651163,178.0,Very Poor,-0.08708167294620912,1.2515610587484167,0.24243648529121434
India,Haryana,Ambala,"Patti Mehar, Ambala - HSPCB",2025-11-24 19:00:00,30.379589,76.778328,100.0,10.0,22.0,51.0,147.0,238.0,31.0,7,2025-11-24 19:00:00,19,0,390.7906976744186,238.0,Very Poor,1.3365393291724557,1.1342797392479245,-0.5799175083687024
India,Haryana,Bahadurgarh,"Arya Nagar, Bahadurgarh - HSPCB",2025-11-24 19:00:00,28.6701,76.9254,48.0,13.0,13.0,18.0,,305.0,7.0,6,2025-11-24 19:00:00,19,0,487.625,305.0,Severe,0.5780821916137658,-0.1556174990163498,0.7410066958306208
India,Haryana,Ballabgarh,"Nathu Colony, Ballabgarh - HSPCB",2025-11-24 19:00:00,28.3419248,77.319699,36.0,,,15.0,,,,2,2025-11-24 19:00:00,19,0,413.375,36.0,Severe,-0.361967676477389,0.3695672022224351,0.5300340061989092
India,Haryana,Bhiwani,"H.B. Colony, Bhiwani - HSPCB",2025-11-24 19:00:00,28.806223,76.141105,11.0,8.0,32.0,13.0,156.0,311.0,12.0,7,2025-11-24 19:00:00,19,0,411.98,311.0,Severe,-0.005111262445861032,0.2922421877973356,0.5794262519991621
India,Haryana,Charkhi Dadri,"Mini Secretariat, Charkhi Dadri - HSPCB",2025-11-24 19:00:00,28.593883,76.270653,14.0,6.0,16.0,15.0,236.0,362.0,10.0,7,2025-11-24 19:00:00,19,0,421.16,362.0,Severe,0.40190565142711726,0.31822779314587557,-0.15483929833479324
India,Haryana,Dharuhera,"Municipal Corporation Office, Dharuhera -  HSPCB",2025-11-24 19:00:00,28.2068,76.7997,78.0,19.0,38.0,35.0,240.0,310.0,15.0,7,2025-11-24 19:00:00,19,0,411.8,310.0,Severe,2.5693245271123066,0.23172729950947002,1.0895792886290523
India,Haryana,Faridabad,"New Industrial Town, Faridabad - HSPCB",2025-11-24 19:00:00,28.39072,77.30059,11.0,11.0,25.0,29.0,168.0,232.0,8.0,7,2025-11-24 19:00:00,19,0,386.1860465116279,232.0,Very Poor,-0.06557705894933684,-0.23519355037131948,0.8928719501356238
India,Haryana,Faridabad,"Sector 11, Faridabad - HSPCB",2025-11-24 19:00:00,28.376058,77.315741,30.0,,22.0,83.0,143.0,242.0,20.0,6,2025-11-24 19:00:00,19,0,393.8604651162791,242.0,Very Poor,0.23829170255688856,0.08500226847764103,-0.7079460017443333
India,Haryana,Faridabad,"Sector 30, Faridabad - HSPCB",2025-11-24 19:00:00,28.4417,77.3217,61.0,11.0,37.0,18.0,153.0,215.0,6.0,7,2025-11-24 19:00:00,19,0,373.1395348837209,215.0,Very Poor,0.5526799855670917,-0.32900281607474424,0.8117580488956766
India,Haryana,Fatehabad,"Huda Sector, Fatehabad - HSPCB",2025-11-24 19:00:00,29.503664,75.467934,27.0,14.0,19.0,28.0,131.0,119.0,12.0,7,2025-11-24 19:00:00,19,0,358.9940828402367,131.0,Very Poor,-0.4103735780906701,-0.12108745287808245,1.3736590642084785
India,Haryana,Gurugram,"NISE Gwal Pahari, Gurugram - IMD",2025-11-24 19:00:00,28.422681,77.148944,65.0,,23.0,60.0,293.0,351.0,,5,2025-11-24 19:00:00,19,0,419.18,351.0,Severe,1.9673686689530099,0.2805444710804449,-1.155734438314466
India,Haryana,Gurugram,"Sector-51, Gurugram - HSPCB",2025-11-24 19:00:00,28.4227,77.0667,23.0,8.0,6.0,38.0,217.0,272.0,27.0,7,2025-11-24 19:00:00,19,0,404.96,272.0,Severe,0.31051470986818336,1.162634635849971,-0.3292289209368463
India,Haryana,Gurugram,"Teri Gram, Gurugram - HSPCB",2025-11-24 19:00:00,28.4275,77.1465,32.0,,16.0,87.0,142.0,221.0,23.0,6,2025-11-24 19:00:00,19,0,388.2840236686391,221.0,Very Poor,0.13693563820374277,0.2430294673282817,-0.8303196097413897
India,Haryana,Gurugram,"Vikas Sadan, Gurugram - HSPCB",2025-11-24 19:00:00,28.4501238,77.0263051,113.0,,26.0,43.0,194.0,327.0,5.0,6,2025-11-24 19:00:00,19,0,414.86,327.0,Severe,1.7981732345455863,-0.4465132687016245,-0.9869780836073718
India,Haryana,Hisar,"Urban Estate-II, Hisar - HSPCB",2025-11-24 19:00:00,29.14056,75.744941,58.0,6.0,15.0,90.0,172.0,133.0,11.0,7,2025-11-24 19:00:00,19,0,310.2093023255814,172.0,Very Poor,0.16541581473857025,-0.6798449748864819,-0.9511443190946024
India,Haryana,Jind,"Police Lines, Jind - HSPCB",2025-11-24 19:00:00,29.307814,76.337619,55.0,2.0,47.0,105.0,150.0,284.0,9.0,7,2025-11-24 19:00:00,19,0,407.12,284.0,Severe,0.8993827864306282,-0.8612916650322365,-1.578963114351545
India,Haryana,Kaithal,"Rishi Nagar, Kaithal - HSPCB",2025-11-24 19:00:00,29.8006,76.4155,32.0,6.0,31.0,24.0,151.0,182.0,31.0,7,2025-11-24 19:00:00,19,0,388.2840236686391,182.0,Very Poor,-0.2809282276363436,1.3998589657658587,0.04878912016639742
India,Haryana,Karnal,"Sector-12, Karnal - HSPCB",2025-11-24 19:00:00,29.6953,77.0027,41.0,7.0,10.0,41.0,160.0,224.0,17.0,7,2025-11-24 19:00:00,19,0,444.3125,224.0,Severe,-0.058798369777331154,0.31854253716985004,-0.31180957968189965
India,Haryana,Kurukshetra,"Sector-7, Kurukshetra - HSPCB",2025-11-24 19:00:00,29.966942,76.875879,38.0,5.0,19.0,60.0,162.0,247.0,10.0,7,2025-11-24 19:00:00,19,0,425.75,247.0,Severe,0.0806258029463563,-0.3355322442500318,-0.6879277163530533
India,Haryana,Mandikhera,"General Hospital, Mandikhera - HSPCB",2025-11-24 19:00:00,27.9002,76.9938,73.0,13.0,22.0,28.0,113.0,139.0,34.0,7,2025-11-24 19:00:00,19,0,314.8139534883721,139.0,Very Poor,0.35061207745179923,1.4185965027166059,0.6159605091600628
India,Haryana,Manesar,"Sector-2 IMT, Manesar - HSPCB",2025-11-24 19:00:00,28.360699,76.93609,41.0,17.0,60.0,34.0,262.0,349.0,12.0,7,2025-11-24 19:00:00,19,0,444.3125,349.0,Severe,2.4490592261012525,0.08552833611744151,1.3134437852194
India,Haryana,Narnaul,"Shastri Nagar, Narnaul - HSPCB",2025-11-24 19:00:00,28.060249,76.113115,34.0,17.0,84.0,7.0,130.0,214.0,7.0,7,2025-11-24 19:00:00,19,0,400.0,214.0,Very Poor,0.9980348413404931,-0.31028146962401043,2.575675143595588
India,Haryana,Palwal,"Shyam Nagar, Palwal - HSPCB",2025-11-24 19:00:00,28.1485564,77.3320667,32.0,9.0,24.0,24.0,73.0,61.0,12.0,7,2025-11-24 19:00:00,19,0,388.2840236686391,73.0,Very Poor,-1.298597775190533,-0.15975427707050366,0.9802005202140359
India,Haryana,Panchgaon,"Amity University, Panchgaon - IITM",2025-11-24 19:00:00,28.3153,76.9143,,,,118.0,,,,1,2025-11-24 19:00:00,19,0,126.11940298507464,118.0,Moderate,0.509781504692978,-0.6800204969720125,-0.8820452557037488
India,Haryana,Panchkula,"Sector-6, Panchkula - HSPCB ",2025-11-24 19:00:00,30.7057778,76.85318056,22.0,,25.0,25.0,,187.0,9.0,5,2025-11-24 19:00:00,19,0,351.6511627906977,187.0,Very Poor,-0.5949689437645135,-0.15246643959995476,0.3944335868438787
India,Haryana,Panipat,"Sector-18, Panipat - HSPCB",2025-11-24 19:00:00,29.432304,76.972765,42.0,,20.0,30.0,,182.0,5.0,5,2025-11-24 19:00:00,19,0,450.5,182.0,Severe,-0.37889435625891527,-0.48515147033738015,0.14785303275728426
India,Haryana,Rohtak,"MD University, Rohtak - HSPCB",2025-11-24 19:00:00,28.52123,76.37138,64.0,,5.0,13.0,104.0,163.0,5.0,6,2025-11-24 19:00:00,19,0,333.2325581395349,163.0,Very Poor,-0.7176104420547832,-0.3558298904576046,0.12146382879255915
India,Haryana,Sirsa,"F-Block, Sirsa - HSPCB",2025-11-24 19:00:00,29.5364,75.0158,48.0,14.0,23.0,63.0,71.0,62.0,13.0,7,2025-11-24 19:00:00,19,0,487.625,71.0,Severe,-0.4044679269074082,-0.5415651600741336,0.9868278122872669
India,Haryana,Sonipat,"Murthal, Sonipat - HSPCB",2025-11-24 19:00:00,29.0272,77.0621,32.0,20.0,43.0,26.0,227.0,302.0,9.0,7,2025-11-24 19:00:00,19,0,410.36,302.0,Severe,1.8153662270146118,-0.12901553908199087,1.9139060083558868
India,Haryana,Yamuna Nagar,"Gobind Pura, Yamuna Nagar - HSPCB",2025-11-24 19:00:00,30.1480566,77.2893471,56.0,4.0,16.0,38.0,169.0,295.0,12.0,7,2025-11-24 19:00:00,19,0,409.1,295.0,Severe,0.33801337003817233,0.09538900666370344,-0.8652685112653707
India,Himachal Pradesh,Baddi,"HIMUDA Complex Phase-1, Baddi - HPPCB",2025-11-24 19:00:00,30.943887,76.801991,61.0,6.0,69.0,128.0,169.0,173.0,48.0,7,2025-11-24 19:00:00,19,0,340.90697674418607,173.0,Very Poor,1.60442315856819,1.4748561708744237,-1.3490791243564433
India,Jammu_and_Kashmir,Srinagar,"Rajbagh, Srinagar - JKSPCB",2025-11-24 19:00:00,34.066206,74.81982,16.0,,,10.0,114.0,101.0,3.0,5,2025-11-24 19:00:00,19,0,285.6521739130435,114.0,Poor,-1.250082157737539,-0.5618322182004615,1.0975320316941344
India,Jharkhand,Dhanbad,"Sardar Patel Nagar, Dhanbad - JSPCB",2025-11-24 19:00:00,23.80569,86.44268,4.0,,89.0,25.0,162.0,,56.0,5,2025-11-24 19:00:00,19,0,141.53020134228188,162.0,Moderate,0.2685193264105069,3.0383448195915466,0.7937292286606831
India,Karnataka,Bagalkot,"Vidayagiri, Bagalkot - KSPCB",2025-11-24 19:00:00,16.172806,75.659694,,1.0,12.0,16.0,54.0,35.0,7.0,6,2025-11-24 19:00:00,19,0,57.75862068965517,54.0,Satisfactory,-2.2412410229330733,-0.3747210846692356,-0.08882987667843203
India,Karnataka,Belgaum,"Ramteerth Nagar, Belgaum - KSPCB",2025-11-24 19:00:00,15.888653,74.541751,14.0,,,19.0,,,,2,2025-11-24 19:00:00,19,0,256.95652173913044,19.0,Poor,-0.6522894224220411,0.33382195831883316,0.6729016072794093
India,Karnataka,Bengaluru,"BWSSB Kadabesanahalli, Bengaluru - CPCB",2025-11-24 19:00:00,12.9352049,77.6814488,77.0,1.0,14.0,24.0,94.0,,6.0,6,2025-11-24 19:00:00,19,0,94.0,94.0,Satisfactory,-0.8145675090522718,-0.3667728631754658,-0.8210710640794916
India,Karnataka,Bengaluru,"City Railway Station, Bengaluru - KSPCB",2025-11-24 19:00:00,12.9756843,77.5660749,87.0,,,,,,,1,2025-11-24 19:00:00,19,0,,87.0,Unknown,0.6578485583052087,-0.010177808946957717,-0.40120283664883
India,Karnataka,Bengaluru,"Hombegowda Nagar, Bengaluru - KSPCB",2025-11-24 19:00:00,12.938539,77.5901,17.0,2.0,17.0,19.0,36.0,17.0,14.0,7,2025-11-24 19:00:00,19,0,300.0,36.0,Poor,-2.5875867605527607,0.03526522359415612,0.281784069155305
India,Karnataka,Bengaluru,"Jayanagar 5th Block, Bengaluru - KSPCB",2025-11-24 19:00:00,12.920984,77.584908,33.0,1.0,21.0,24.0,39.0,24.0,10.0,7,2025-11-24 19:00:00,19,0,394.14201183431953,39.0,Very Poor,-2.3154092481193165,-0.28638998098211194,0.0034423225173343076
India,Karnataka,Bengaluru,"Jigani, Bengaluru - KSPCB",2025-11-24 19:00:00,12.7816279,77.6299145,34.0,4.0,23.0,18.0,51.0,42.0,18.0,7,2025-11-24 19:00:00,19,0,400.0,51.0,Very Poor,-1.886825645835549,0.3327722708972169,0.36196724674209246
India,Karnataka,Bengaluru,"Peenya, Bengaluru - CPCB",2025-11-24 19:00:00,13.0270199,77.494094,39.0,6.0,28.0,22.0,69.0,26.0,10.0,7,2025-11-24 19:00:00,19,0,431.9375,69.0,Severe,-1.5851284925458355,-0.2960360394463888,0.682454148149151
India,Karnataka,Bengaluru,"RVCE-Mailasandra, Bengaluru - KSPCB",2025-11-24 19:00:00,12.921418,77.502466,29.0,4.0,23.0,,66.0,50.0,6.0,6,2025-11-24 19:00:00,19,0,370.7100591715976,66.0,Very Poor,-1.657126402646824,-0.8220350738152564,0.05226282678628746
India,Karnataka,Bengaluru,"Silk Board, Bengaluru - KSPCB",2025-11-24 19:00:00,12.917348,77.622813,40.0,2.0,10.0,12.0,38.0,31.0,9.0,7,2025-11-24 19:00:00,19,0,438.125,40.0,Severe,-2.3518614321440405,-0.22183154293582746,0.1105739111456783
India,Karnataka,Chamarajanagar,"Urban, Chamarajanagar - KSPCB",2025-11-24 19:00:00,11.55358,76.55521,23.0,2.0,21.0,33.0,43.0,30.0,4.0,7,2025-11-24 19:00:00,19,0,335.5621301775148,43.0,Very Poor,-2.304333242509476,-0.7971668927857897,0.15412399578161598
India,Karnataka,Chikkamagaluru,"Kalyana Nagara, Chikkamagaluru - KSPCB",2025-11-24 19:00:00,13.328028,75.797056,21.0,2.0,20.0,44.0,25.0,12.0,6.0,7,2025-11-24 19:00:00,19,0,323.8461538461538,44.0,Very Poor,-2.441321452749306,-0.8042440483662027,0.06459438882836446
India,Karnataka,Davanagere,"Devaraj Urs Badavane, Davanagere - KSPCB",2025-11-24 19:00:00,14.4758,75.9052,26.0,3.0,22.0,20.0,,18.0,4.0,6,2025-11-24 19:00:00,19,0,353.1360946745562,26.0,Very Poor,-1.7101547511326054,-0.5758723016978636,0.2951994986179634
India,Karnataka,Dharwad,"Kalabhavan, Dharwad - KSPCB",2025-11-24 19:00:00,15.459706,75.008381,51.0,6.0,25.0,27.0,80.0,61.0,3.0,7,2025-11-24 19:00:00,19,0,101.0,80.0,Moderate,-1.2282537927965065,-0.7894019011771792,0.4555317451085291
India,Karnataka,Gadag,"Panchal Nagar, Gadag - KSPCB",2025-11-24 19:00:00,15.411456,75.638133,,,,31.0,,,,1,2025-11-24 19:00:00,19,0,31.0,31.0,Good,-0.15398063563083952,0.20540170132067243,0.2664237283583441
India,Karnataka,Hubballi,"Lingaraj Nagar, Hubballi - KSPCB",2025-11-24 19:00:00,15.3714823,75.1160168,17.0,1.0,8.0,15.0,55.0,38.0,1.0,7,2025-11-24 19:00:00,19,0,300.0,55.0,Poor,-2.682728450525024,-0.7694015390555112,0.1564183256533049
India,Karnataka,Kalaburagi,"Lal Bahadur Shastri Nagar, Kalaburagi - KSPCB",2025-11-24 19:00:00,17.321993,76.822628,32.0,1.0,12.0,20.0,68.0,58.0,61.0,7,2025-11-24 19:00:00,19,0,388.2840236686391,68.0,Very Poor,-1.8128311724000419,3.417636307913902,-0.7006296432313125
India,Karnataka,Kalaburagi,"Mahatma Basaveswar Colony, Kalaburgi - KSPCB",2025-11-24 19:00:00,17.336318,76.847397,44.0,3.0,14.0,18.0,46.0,34.0,5.0,7,2025-11-24 19:00:00,19,0,462.875,46.0,Severe,-2.08447840481111,-0.5701315941773824,0.1994007252359133
India,Karnataka,Koppal,"Diwator Nagar, Koppal - KSPCB",2025-11-24 19:00:00,15.34763,76.181767,27.0,7.0,29.0,10.0,,25.0,26.0,6,2025-11-24 19:00:00,19,0,358.9940828402367,29.0,Very Poor,-1.2042071716341287,1.0241059716124572,0.7955075770010875
India,Karnataka,Madikeri,"Stuart Hill, Madikeri - KSPCB",2025-11-24 19:00:00,12.415911,75.73505,,,,5.0,27.0,36.0,7.0,4,2025-11-24 19:00:00,19,0,59.44827586206897,36.0,Satisfactory,-1.710222066885959,-0.3966873514272937,1.182990298807927
India,Karnataka,Mangalore,"Kadri, Mangalore - KSPCB",2025-11-24 19:00:00,12.88925,74.853,,3.0,11.0,26.0,14.0,13.0,15.0,6,2025-11-24 19:00:00,19,0,26.0,26.0,Good,-2.318147275078476,0.0001107977702069387,0.07407756810500549
India,Karnataka,Mysuru,"Hebbal 1st Stage, Mysuru - KSPCB",2025-11-24 19:00:00,12.21041,76.37376,12.0,5.0,22.0,40.0,41.0,12.0,5.0,7,2025-11-24 19:00:00,19,0,228.2608695652174,41.0,Poor,-2.260833778325981,-0.848561207229046,0.6131027979123125
India,Karnataka,Shivamogga,"Vinoba Nagara, Shivamogga - KSPCB",2025-11-24 19:00:00,13.94,75.555917,20.0,4.0,17.0,47.0,34.0,28.0,4.0,7,2025-11-24 19:00:00,19,0,317.98816568047334,47.0,Very Poor,-2.2057195812240336,-0.9648957623595485,0.2449414302274181
India,Karnataka,Vijayapura,"Ibrahimpur, Vijayapura - KSPCB",2025-11-24 19:00:00,16.802639,75.722694,23.0,1.0,11.0,16.0,43.0,30.0,,6,2025-11-24 19:00:00,19,0,335.5621301775148,43.0,Very Poor,-2.5626954864819558,0.22392599915976408,0.00587266001358885
India,Karnataka,Yadgir,"Collector Office, Yadgir - KSPCB",2025-11-24 19:00:00,16.7602,77.1428,22.0,2.0,31.0,19.0,58.0,53.0,11.0,7,2025-11-24 19:00:00,19,0,329.70414201183434,58.0,Very Poor,-2.05412024517763,-0.14062439126804258,0.30957268398598187
India,Kerala,Eloor,"Udyogamandal, Eloor - Kerala PCB",2025-11-24 19:00:00,10.073232,76.302765,59.0,,,12.0,,,,2,2025-11-24 19:00:00,19,0,12.0,59.0,Good,-0.049432864939422186,0.39490955117515075,0.36507148616354096
India,Kerala,Kannur,"Thavakkara, Kannur - Kerala PCB",2025-11-24 19:00:00,11.875,75.3732,15.0,2.0,17.0,29.0,52.0,48.0,5.0,7,2025-11-24 19:00:00,19,0,271.30434782608694,52.0,Poor,-2.3592423622100283,-0.6498155594167978,0.16810052277476054
India,Kerala,Kollam,"Polayathode, Kollam - Kerala PCB",2025-11-24 19:00:00,8.8787,76.6073,16.0,1.0,9.0,32.0,34.0,19.0,2.0,7,2025-11-24 19:00:00,19,0,285.6521739130435,34.0,Poor,-2.7627489171712063,-0.9157534274510549,0.019163854079031064
India,Kerala,Thiruvananthapuram,"Kariavattom, Thiruvananthapuram - Kerala PCB",2025-11-24 19:00:00,8.5637,76.8865,34.0,,7.0,36.0,55.0,34.0,8.0,6,2025-11-24 19:00:00,19,0,400.0,55.0,Very Poor,-1.8258801757635543,-0.5574654354060504,0.439650317066731
India,Kerala,Thiruvananthapuram,"Plammoodu, Thiruvananthapuram - Kerala PCB",2025-11-24 19:00:00,8.5149093,76.9435879,23.0,2.0,28.0,17.0,11.0,8.0,17.0,7,2025-11-24 19:00:00,19,0,335.5621301775148,28.0,Very Poor,-2.5461935410149037,0.20942359962986368,0.40908901506115897
India,Kerala,Thrissur,"Corporation Ground, Thrissur - Kerala PCB",2025-11-24 19:00:00,10.5324,76.2159,30.0,,,30.0,,,,2,2025-11-24 19:00:00,19,0,376.5680473372781,30.0,Very Poor,-0.33502762237290645,0.2182619723398637,0.38538686860278626
India,Madhya Pradesh,Bhopal,"Idgah Hills, Bhopal - MPPCB",2025-11-24 19:00:00,23.264759,77.381568,40.0,1.0,36.0,80.0,228.0,294.0,13.0,7,2025-11-24 19:00:00,19,0,438.125,294.0,Severe,0.8155992782345358,-0.19664463489683395,-1.5753883629820364
India,Madhya Pradesh,Bhopal,"Paryavaran Parisar, Bhopal - MPPCB",2025-11-24 19:00:00,23.210494,77.425409,43.0,9.0,74.0,43.0,262.0,256.0,8.0,7,2025-11-24 19:00:00,19,0,456.6875,262.0,Severe,1.6689996797574642,-0.31987731112981865,0.48232694698792167
India,Madhya Pradesh,Bhopal,"T T Nagar, Bhopal - MPPCB",2025-11-24 19:00:00,23.233584,77.400574,40.0,7.0,66.0,135.0,220.0,330.0,10.0,7,2025-11-24 19:00:00,19,0,438.125,330.0,Severe,2.1739333070579914,-1.0543624004499463,-1.1768109073093682
India,Madhya Pradesh,Dewas,"Bhopal Chauraha, Dewas - MPPCB",2025-11-24 19:00:00,22.9682591,76.064118,34.0,3.0,8.0,28.0,165.0,293.0,50.0,7,2025-11-24 19:00:00,19,0,408.74,293.0,Severe,-0.02407870573356344,2.8886867884486986,-1.1557514282936605
India,Madhya Pradesh,Gwalior,"City Center, Gwalior - MPPCB",2025-11-24 19:00:00,26.203442,78.193251,33.0,3.0,58.0,65.0,127.0,166.0,13.0,7,2025-11-24 19:00:00,19,0,394.14201183431953,166.0,Very Poor,-0.16677856587570672,-0.3393956970420625,-0.34243021046691446
India,Madhya Pradesh,Gwalior,"Deen Dayal Nagar, Gwalior - MPPCB",2025-11-24 19:00:00,26.259242,78.216432,54.0,9.0,76.0,114.0,181.0,233.0,14.0,7,2025-11-24 19:00:00,19,0,386.953488372093,233.0,Very Poor,1.8405693371039722,-0.7397571069592482,-0.4031817433981222
India,Madhya Pradesh,Gwalior,"Maharaj Bada, Gwalior - MPPCB",2025-11-24 19:00:00,26.200388,78.147714,48.0,4.0,72.0,47.0,139.0,187.0,9.0,7,2025-11-24 19:00:00,19,0,487.625,187.0,Severe,0.3144504332755166,-0.44088625067308024,0.031356988592162675
India,Madhya Pradesh,Indore,"Airport Area, Indore - IMC",2025-11-24 19:00:00,22.7289,75.8076,7.0,,2.0,9.0,,104.0,21.0,5,2025-11-24 19:00:00,19,0,245.3793103448276,104.0,Poor,-1.5382557614743944,0.8142255441893264,0.5339868470600561
India,Madhya Pradesh,Indore,"Chhoti Gwaltoli, Indore - MPPCB",2025-11-24 19:00:00,22.431,75.5213,56.0,,132.0,66.0,162.0,241.0,11.0,6,2025-11-24 19:00:00,19,0,393.09302325581393,241.0,Very Poor,1.961186794260936,-0.5483946814580773,0.580491882003698
India,Madhya Pradesh,Indore,"Maguda Nagar, Indore - IMC",2025-11-24 19:00:00,22.7524,75.8872,28.0,,,13.0,,,,2,2025-11-24 19:00:00,19,0,364.85207100591714,28.0,Very Poor,-0.49389550189122816,0.3917267619472717,0.627588600316332
India,Madhya Pradesh,Indore,"Regional Park, Indore - IMC",2025-11-24 19:00:00,22.678,75.8559,31.0,,7.0,15.0,,,25.0,4,2025-11-24 19:00:00,19,0,382.4260355029586,31.0,Very Poor,-0.7777369828356911,1.078579504805225,0.12642460193199237
India,Madhya Pradesh,Indore,"Residency Area, Indore - IMC",2025-11-24 19:00:00,22.7084,75.8815,18.0,,16.0,15.0,87.0,82.0,28.0,6,2025-11-24 19:00:00,19,0,306.2721893491124,87.0,Very Poor,-1.5580459200386023,1.1319929974553704,0.5881285630039449
India,Madhya Pradesh,Jabalpur,"Govindh Bhavan Colony, Jabalpur - JMC",2025-11-24 19:00:00,23.163174,79.973061,50.0,1.0,21.0,57.0,94.0,112.0,14.0,7,2025-11-24 19:00:00,19,0,500.0,112.0,Severe,-1.0511536429091344,-0.19725701057250142,-0.9119971213980731
India,Madhya Pradesh,Jabalpur,"Gupteshwar, Jabalpur - JMC",2025-11-24 19:00:00,23.142888,79.916147,67.0,12.0,45.0,75.0,123.0,137.0,8.0,7,2025-11-24 19:00:00,19,0,313.27906976744185,137.0,Very Poor,0.7255448852089676,-0.9043270316056775,0.4320880099154853
India,Madhya Pradesh,Jabalpur,"Marhatal, Jabalpur - MPPCB",2025-11-24 19:00:00,23.168606,79.932247,57.0,5.0,50.0,102.0,129.0,201.0,34.0,7,2025-11-24 19:00:00,19,0,362.3953488372093,201.0,Very Poor,0.8233009966920765,0.7831525088759431,-1.162097677420024
India,Madhya Pradesh,Jabalpur,"Suhagi, Jabalpur - JMC",2025-11-24 19:00:00,23.218135,79.95777,46.0,5.0,63.0,52.0,133.0,179.0,7.0,7,2025-11-24 19:00:00,19,0,475.25,179.0,Severe,0.1963291456714533,-0.6413129034728458,0.06826711935835464
India,Madhya Pradesh,Katni,"Gole Bazar, Katni - MPPCB",2025-11-24 19:00:00,23.50016,80.23284,48.0,5.0,30.0,119.0,144.0,173.0,26.0,7,2025-11-24 19:00:00,19,0,487.625,173.0,Severe,0.4724845031126823,0.07370093446174487,-1.410925532562973
India,Madhya Pradesh,Maihar,"Sahilara, Maihar - KJS Cements",2025-11-24 19:00:00,24.2613009,80.7231783,39.0,,51.0,,102.0,48.0,17.0,5,2025-11-24 19:00:00,19,0,431.9375,102.0,Severe,-0.6613066475777035,-0.09036226135589,0.47942477040238696
India,Madhya Pradesh,Mandideep,"Sector-D Industrial Area, Mandideep - MPPCB",2025-11-24 19:00:00,23.10844,77.511428,38.0,4.0,143.0,79.0,166.0,293.0,54.0,7,2025-11-24 19:00:00,19,0,425.75,293.0,Severe,2.2758416779799933,2.408927526946323,-0.2614477435389177
India,Madhya Pradesh,Pithampur,"Sector-2 Industrial Area, Pithampur - MPPCB",2025-11-24 19:00:00,22.624758,75.675238,39.0,,,42.0,,,,2,2025-11-24 19:00:00,19,0,431.9375,42.0,Severe,-0.11222168236673714,0.09410411784075963,0.1469302192482097
India,Madhya Pradesh,Ratlam,"Shasthri Nagar, Ratlam - IPCA Lab",2025-11-24 19:00:00,23.331731,75.045981,,,20.0,,186.0,178.0,,3,2025-11-24 19:00:00,19,0,344.74418604651163,186.0,Very Poor,0.07921278570883633,0.0911641865543061,-0.3067213453443476
India,Madhya Pradesh,Sagar,"Civil Lines, Sagar - MPPCB",2025-11-24 19:00:00,23.838586,78.759431,47.0,1.0,22.0,57.0,137.0,254.0,7.0,7,2025-11-24 19:00:00,19,0,481.4375,254.0,Severe,-0.21212870719529586,-0.5021995219336826,-1.181970715347183
India,Madhya Pradesh,Sagar,"Deen Dayal Nagar, Sagar - MPPCB",2025-11-24 19:00:00,23.8640158,78.80289321,58.0,,18.0,,113.0,112.0,8.0,5,2025-11-24 19:00:00,19,0,272.6896551724138,113.0,Poor,-0.50737665496873,-0.5948837403998892,-0.12092883228005016
India,Madhya Pradesh,Satna,"Bandhavgar Colony, Satna - Birla Cement",2025-11-24 19:00:00,24.58434363,80.8549414,30.0,,12.0,22.0,64.0,46.0,19.0,6,2025-11-24 19:00:00,19,0,376.5680473372781,64.0,Very Poor,-1.7450508987768472,0.37174794695768765,0.5576558507029261
India,Madhya Pradesh,Singrauli,"Suryakiran Bhawan NCL, Singrauli - MPPCB",2025-11-24 19:00:00,24.10897,82.64558,59.0,13.0,82.0,40.0,300.0,322.0,30.0,7,2025-11-24 19:00:00,19,0,413.96,322.0,Severe,2.9619819097835403,1.3041631147644286,0.5741746875583509
India,Maharashtra,Ahmednagar,"Tarakpur, Ahmednagar - MPCB",2025-11-24 19:00:00,19.10122,74.73339,54.0,6.0,21.0,57.0,70.0,53.0,6.0,7,2025-11-24 19:00:00,19,0,88.17241379310346,70.0,Satisfactory,-1.085140718729042,-0.8968460188444906,-0.009025928366190712
India,Maharashtra,Akola,"Ramdaspeth, Akola - MPCB",2025-11-24 19:00:00,20.719516,77.000253,23.0,5.0,21.0,37.0,85.0,56.0,15.0,7,2025-11-24 19:00:00,19,0,335.5621301775148,85.0,Very Poor,-1.6022320014003566,-0.024161938039649042,0.265769742101153
India,Maharashtra,Amravati,"Shivneri Colony, Amravati - MPCB",2025-11-24 19:00:00,20.9402359,77.7895248,25.0,2.0,14.0,64.0,93.0,80.0,20.0,7,2025-11-24 19:00:00,19,0,347.27810650887574,93.0,Very Poor,-1.4921510878249176,0.127509799415739,-0.7161989245494911
India,Maharashtra,Amravati,"Shri Shivaji Science College, Amravati - MPCB",2025-11-24 19:00:00,20.939198,77.765701,46.0,3.0,23.0,71.0,101.0,,30.0,6,2025-11-24 19:00:00,19,0,475.25,101.0,Severe,-0.4424439959054903,0.8190498813443088,-1.0581810024950706
India,Maharashtra,Aurangabad,"MIDC Chilkalthana, Aurangabad - MPCB",2025-11-24 19:00:00,19.87562,75.38731,10.0,2.0,41.0,39.0,82.0,56.0,1.0,7,2025-11-24 19:00:00,19,0,200.0,82.0,Moderate,-1.8535363038470651,-1.03128178509752,0.32195386582882807
India,Maharashtra,Aurangabad,"More Chowk Waluj, Aurangabad - MPCB",2025-11-24 19:00:00,19.8389439,75.244448,29.0,11.0,20.0,27.0,82.0,101.0,16.0,7,2025-11-24 19:00:00,19,0,370.7100591715976,101.0,Very Poor,-0.9552269388115217,0.12680219913223478,1.0515793459189786
India,Maharashtra,Aurangabad,"Rachnakar Colony, Aurangabad - MPCB",2025-11-24 19:00:00,19.863756,75.321188,17.0,3.0,16.0,45.0,125.0,109.0,19.0,7,2025-11-24 19:00:00,19,0,300.0,125.0,Poor,-1.3318256595759597,0.3027945032421661,-0.3428770269322683
India,Maharashtra,Badlapur,"Katrap, Badlapur - MPCB",2025-11-24 19:00:00,19.16485,73.23409,38.0,5.0,23.0,73.0,137.0,130.0,9.0,7,2025-11-24 19:00:00,19,0,425.75,137.0,Severe,-0.4662387390642814,-0.6880013293453783,-0.5075150776662758
India,Maharashtra,Belapur,"CBD Belapur, Belapur - MPCB",2025-11-24 19:00:00,19.0243902,73.0406721,31.0,5.0,11.0,44.0,163.0,208.0,17.0,7,2025-11-24 19:00:00,19,0,382.4260355029586,208.0,Very Poor,-0.3754302002211526,0.296926916006005,-0.495590312183235
India,Maharashtra,Bhiwandi,"Gokul Nagar, Bhiwandi - MPCB",2025-11-24 19:00:00,19.309073,73.057223,29.0,5.0,24.0,84.0,143.0,148.0,11.0,7,2025-11-24 19:00:00,19,0,370.7100591715976,148.0,Very Poor,-0.3682731102648804,-0.634760725486344,-0.6320959831478976
India,Maharashtra,Boisar,"Khaira, Boisar - MPCB",2025-11-24 19:00:00,19.786089,72.757971,40.0,8.0,38.0,45.0,145.0,228.0,20.0,7,2025-11-24 19:00:00,19,0,438.125,228.0,Severe,0.3418772075216618,0.41760338863172713,0.08005890766616783
India,Maharashtra,Chandrapur,"Chauhan Colony, Chandrapur - MPCB",2025-11-24 19:00:00,19.9629,79.298714,32.0,2.0,32.0,20.0,126.0,57.0,30.0,7,2025-11-24 19:00:00,19,0,388.2840236686391,126.0,Very Poor,-1.3349105556056802,1.2592623154681128,-0.11003546404671813
India,Maharashtra,Chandrapur,"MIDC Khutala, Chandrapur - MPCB",2025-11-24 19:00:00,19.9775302,79.2337086,39.0,6.0,25.0,18.0,165.0,184.0,9.0,7,2025-11-24 19:00:00,19,0,431.9375,184.0,Severe,-0.35153638939801096,-0.05795552037350707,0.20326409391967715
India,Maharashtra,Dhule,"Deopur, Dhule - MPCB",2025-11-24 19:00:00,20.918946,74.776388,33.0,2.0,23.0,49.0,84.0,70.0,10.0,7,2025-11-24 19:00:00,19,0,394.14201183431953,84.0,Very Poor,-1.5391958940841004,-0.4592654140894707,-0.34525372418387384
India,Maharashtra,Jalgaon,"Prabhat Colony, Jalgaon - MPCB",2025-11-24 19:00:00,21.001264,75.565602,22.0,2.0,8.0,68.0,102.0,74.0,5.0,7,2025-11-24 19:00:00,19,0,329.70414201183434,102.0,Very Poor,-1.6538909277578668,-0.9516318151269113,-0.6530293979063514
India,Maharashtra,Jalna,"Old MIDC, Jalna - MPCB",2025-11-24 19:00:00,19.854616,75.905894,24.0,,,61.0,,,,2,2025-11-24 19:00:00,19,0,341.42011834319527,61.0,Very Poor,-0.18601637004795166,-0.09587952389538548,0.029527044282600154
India,Maharashtra,Kalyan,"Khadakpada, Kalyan - MPCB",2025-11-24 19:00:00,19.25292,73.142019,75.0,,,9.0,,,,2,2025-11-24 19:00:00,19,0,9.0,75.0,Good,0.1610166366667995,0.4218312982547742,0.26236784837047294
India,Maharashtra,Kalyan,"Pimpleshwar Mandir, Kalyan - MPCB",2025-11-24 19:00:00,19.192056,72.9585188,45.0,2.0,10.0,100.0,154.0,,16.0,6,2025-11-24 19:00:00,19,0,469.0625,154.0,Severe,-0.2502181270098998,-0.367472793308331,-1.6582198791745832
India,Maharashtra,Kolhapur,"Shivaji University, Kolhapur - MPCB",2025-11-24 19:00:00,16.6870449,74.2505872,13.0,3.0,46.0,26.0,104.0,103.0,5.0,7,2025-11-24 19:00:00,19,0,242.6086956521739,104.0,Poor,-1.3929858862698694,-0.5669143747450252,0.4772404361377101
India,Maharashtra,Kolhapur,"Sinchan Bhavan, Kolhapur - MPCB",2025-11-24 19:00:00,16.7143745,74.2426398,45.0,,,15.0,,,,2,2025-11-24 19:00:00,19,0,469.0625,45.0,Severe,-0.23071513513657382,0.36753654748783937,0.44998687188737996
India,Maharashtra,Latur,"Sawe Wadi, Latur - MPCB",2025-11-24 19:00:00,18.39963,76.57452,25.0,14.0,45.0,79.0,80.0,83.0,4.0,7,2025-11-24 19:00:00,19,0,347.27810650887574,83.0,Very Poor,-0.24068813000429998,-1.3383308897383182,1.2606900065123563
India,Maharashtra,Mahad,"Kamble Tarf Birwadi, Mahad - MPCB",2025-11-24 19:00:00,18.1023399,73.4783687,10.0,,,63.0,,,,2,2025-11-24 19:00:00,19,0,200.0,63.0,Moderate,-0.37492809013388284,-0.11307526093565452,0.12764322292669322
India,Maharashtra,Malegaon,"Mahesh Nagar, Malegaon - MPCB",2025-11-24 19:00:00,20.555712,74.529236,49.0,1.0,39.0,63.0,80.0,50.0,11.0,7,2025-11-24 19:00:00,19,0,493.8125,80.0,Severe,-1.1776592480954806,-0.576310140107337,-0.5905760541865821
India,Maharashtra,Mira-Bhayandar,"Bhayandar West, Mira-Bhayandar - MPCB",2025-11-24 19:00:00,19.296481,72.840923,39.0,5.0,38.0,126.0,121.0,160.0,4.0,7,2025-11-24 19:00:00,19,0,431.9375,160.0,Severe,0.15594427487169701,-1.5927565235169043,-1.032214288528868
India,Maharashtra,Mumbai,"Bandra Kurla Complex, Mumbai - MPCB",2025-11-24 19:00:00,19.065931,72.862131,24.0,14.0,62.0,66.0,143.0,106.0,3.0,7,2025-11-24 19:00:00,19,0,341.42011834319527,143.0,Very Poor,0.34549465251211947,-1.2124263680394467,1.482507968761224
India,Maharashtra,Mumbai,"Borivali East, Mumbai - IITM",2025-11-24 19:00:00,19.23241,72.86895,62.0,8.0,73.0,117.0,172.0,194.0,,6,2025-11-24 19:00:00,19,0,357.0232558139535,194.0,Very Poor,1.6424342038035395,-0.686782544771233,-0.6021552272482645
India,Maharashtra,Mumbai,"Borivali East, Mumbai - MPCB",2025-11-24 19:00:00,19.2243333,72.8658113,2.0,,7.0,,,,,2,2025-11-24 19:00:00,19,0,100.0,7.0,Satisfactory,-0.9852364129684925,0.06251961580390844,0.005551795748818221
India,Maharashtra,Mumbai,"Byculla, Mumbai - BMC",2025-11-24 19:00:00,18.9767,72.838,40.0,25.0,100.0,32.0,,,18.0,5,2025-11-24 19:00:00,19,0,438.125,100.0,Severe,2.0154148969710133,0.06278628902069593,3.432662280576373
India,Maharashtra,Mumbai,"Chakala-Andheri East, Mumbai - IITM",2025-11-24 19:00:00,19.11074,72.86084,52.0,25.0,113.0,70.0,162.0,260.0,12.0,7,2025-11-24 19:00:00,19,0,402.8,260.0,Severe,3.1576614176788764,-0.6563380130361995,2.7948856681715157
India,Maharashtra,Mumbai,"Chembur, Mumbai - MPCB",2025-11-24 19:00:00,19.0364585,72.8954371,34.0,6.0,67.0,85.0,136.0,130.0,4.0,7,2025-11-24 19:00:00,19,0,400.0,136.0,Very Poor,0.1725676614120981,-1.2473442154585688,0.05357490179910219
India,Maharashtra,Mumbai,"Chhatrapati Shivaji Intl. Airport (T2), Mumbai - MPCB",2025-11-24 19:00:00,19.10078,72.87462,16.0,,,7.0,,,,2,2025-11-24 19:00:00,19,0,285.6521739130435,16.0,Poor,-0.7146755896783253,0.45549790147565355,0.8135228702532279
India,Maharashtra,Mumbai,"Colaba, Mumbai - MPCB",2025-11-24 19:00:00,18.91,72.82,29.0,3.0,30.0,11.0,,,,4,2025-11-24 19:00:00,19,0,370.7100591715976,30.0,Very Poor,-0.8844585692913199,0.4650553086013522,0.03844216818379514
India,Maharashtra,Mumbai,"Deonar, Mumbai - IITM",2025-11-24 19:00:00,19.04946,72.923,59.0,15.0,41.0,32.0,270.0,223.0,6.0,7,2025-11-24 19:00:00,19,0,379.27906976744185,270.0,Very Poor,1.7273378767679806,-0.3814252936473224,1.015768822813585
India,Maharashtra,Mumbai,"Ghatkopar, Mumbai - BMC",2025-11-24 19:00:00,19.083694,72.920967,33.0,4.0,55.0,105.0,143.0,98.0,4.0,7,2025-11-24 19:00:00,19,0,394.14201183431953,143.0,Very Poor,-0.1008672737185873,-1.4330259154936469,-0.5524707949382314
India,Maharashtra,Mumbai,"Kandivali East, Mumbai - MPCB",2025-11-24 19:00:00,19.2058,72.8682,24.0,1.0,7.0,,124.0,148.0,,5,2025-11-24 19:00:00,19,0,341.42011834319527,148.0,Very Poor,-1.2972965409672002,0.0788651173592421,-0.9085834603373788
India,Maharashtra,Mumbai,"Kandivali West, Mumbai - BMC",2025-11-24 19:00:00,19.215859,72.831718,18.0,2.0,37.0,67.0,114.0,185.0,8.0,7,2025-11-24 19:00:00,19,0,350.1162790697674,185.0,Very Poor,-0.7404637841340469,-0.6568758202577211,-0.5726454679054842
India,Maharashtra,Mumbai,"Kherwadi_Bandra East, Mumbai - MPCB",2025-11-24 19:00:00,19.0632143,72.8456324,25.0,11.0,26.0,53.0,139.0,135.0,3.0,7,2025-11-24 19:00:00,19,0,347.27810650887574,139.0,Very Poor,-0.3209627779170887,-0.963309755733988,0.7761247736262549
India,Maharashtra,Mumbai,"Khindipada-Bhandup West, Mumbai - IITM",2025-11-24 19:00:00,19.1653323,72.922099,50.0,2.0,29.0,141.0,115.0,,10.0,6,2025-11-24 19:00:00,19,0,500.0,141.0,Severe,0.10649972323855555,-1.283238994313127,-1.8997591383808885
India,Maharashtra,Mumbai,"Kurla, Mumbai - MPCB",2025-11-24 19:00:00,19.0863,72.8888,16.0,2.0,8.0,28.0,123.0,105.0,36.0,7,2025-11-24 19:00:00,19,0,285.6521739130435,123.0,Poor,-1.5748714168112616,1.6879500168094224,-0.5041223329978992
India,Maharashtra,Mumbai,"Malad West, Mumbai - IITM",2025-11-24 19:00:00,19.19709,72.82204,47.0,12.0,87.0,182.0,225.0,191.0,5.0,7,2025-11-24 19:00:00,19,0,481.4375,225.0,Severe,2.6390039876677713,-2.10480590822345,-0.5952720332614841
India,Maharashtra,Mumbai,"Mazgaon, Mumbai - IITM",2025-11-24 19:00:00,18.96702,72.84214,93.0,19.0,99.0,119.0,161.0,298.0,9.0,7,2025-11-24 19:00:00,19,0,409.64,298.0,Severe,3.6458245741994406,-1.252256067591939,0.7570186589405239
India,Maharashtra,Mumbai,"Mindspace-Malad West, Mumbai - MPCB",2025-11-24 19:00:00,19.1878657,72.8304069,54.0,17.0,71.0,35.0,140.0,116.0,15.0,7,2025-11-24 19:00:00,19,0,286.34482758620686,140.0,Poor,0.9952375339748811,-0.10101483673206342,1.9924466831345993
India,Maharashtra,Mumbai,"Navy Nagar-Colaba, Mumbai - IITM",2025-11-24 19:00:00,18.897756,72.81332,43.0,4.0,86.0,91.0,159.0,270.0,11.0,7,2025-11-24 19:00:00,19,0,456.6875,270.0,Severe,1.2752539451666716,-0.6670783094985726,-0.5839814843886945
India,Maharashtra,Mumbai,"Powai, Mumbai - MPCB",2025-11-24 19:00:00,19.1375,72.915056,18.0,2.0,8.0,9.0,162.0,208.0,28.0,7,2025-11-24 19:00:00,19,0,367.7674418604651,208.0,Very Poor,-1.0315625022753745,1.463859132056594,-0.47699340836647935
India,Maharashtra,Mumbai,"Sewri, Mumbai - BMC",2025-11-24 19:00:00,19.000084,72.85673,27.0,21.0,4.0,125.0,84.0,16.0,33.0,7,2025-11-24 19:00:00,19,0,358.9940828402367,125.0,Very Poor,0.040940883717720505,0.16578246479929448,0.9652216199739677
India,Maharashtra,Mumbai,"Shivaji Nagar, Mumbai - BMC",2025-11-24 19:00:00,19.060498,72.923356,43.0,4.0,63.0,60.0,,,16.0,5,2025-11-24 19:00:00,19,0,456.6875,63.0,Severe,0.19759618755142355,-0.08150333528596497,-0.23020913861168962
India,Maharashtra,Mumbai,"Siddharth Nagar-Worli, Mumbai - IITM",2025-11-24 19:00:00,19.000083,72.813993,35.0,8.0,105.0,115.0,146.0,196.0,,6,2025-11-24 19:00:00,19,0,407.1875,196.0,Severe,1.499242385316719,-0.7421603959388108,0.06338284520874721
India,Maharashtra,Mumbai,"Sion, Mumbai - MPCB",2025-11-24 19:00:00,19.047,72.8746,13.0,5.0,59.0,10.0,75.0,50.0,16.0,7,2025-11-24 19:00:00,19,0,242.6086956521739,75.0,Poor,-1.5444776706821433,0.24092408109810923,1.1560865534658382
India,Maharashtra,Mumbai,"Vasai West, Mumbai - MPCB",2025-11-24 19:00:00,19.3832,72.8204,48.0,3.0,21.0,17.0,113.0,102.0,10.0,7,2025-11-24 19:00:00,19,0,487.625,113.0,Severe,-1.1920938038098454,-0.08015688032289585,-0.061512564329742565
India,Maharashtra,Mumbai,"Vile Parle West, Mumbai - MPCB",2025-11-24 19:00:00,19.10861,72.83622,26.0,4.0,25.0,17.0,143.0,108.0,48.0,7,2025-11-24 19:00:00,19,0,353.1360946745562,143.0,Very Poor,-0.929634307162519,2.615706995517326,-0.15257789884514586
India,Maharashtra,Mumbai,"Worli, Mumbai - MPCB",2025-11-24 19:00:00,18.9936162,72.8128113,13.0,1.0,6.0,20.0,114.0,107.0,19.0,7,2025-11-24 19:00:00,19,0,255.6206896551724,114.0,Poor,-1.9366788060625013,0.5818626554851118,-0.33937372294626705
India,Maharashtra,Nagpur,"Ambazari, Nagpur - MPCB",2025-11-24 19:00:00,21.121801,79.04952,30.0,8.0,34.0,66.0,128.0,169.0,39.0,7,2025-11-24 19:00:00,19,0,376.5680473372781,169.0,Very Poor,0.053080020838692454,1.470392547119785,-0.19726959476410313
India,Maharashtra,Nagpur,"Mahal, Nagpur - MPCB",2025-11-24 19:00:00,21.14472,79.107595,68.0,4.0,58.0,37.0,138.0,208.0,51.0,7,2025-11-24 19:00:00,19,0,367.7674418604651,208.0,Very Poor,0.7130901655843176,2.649751981832476,-0.6603767450355945
India,Maharashtra,Nagpur,"Opp GPO Civil Lines, Nagpur - MPCB",2025-11-24 19:00:00,21.152875,79.0517531,36.0,4.0,45.0,40.0,119.0,129.0,27.0,7,2025-11-24 19:00:00,19,0,413.375,129.0,Severe,-0.5344426420591593,0.86416586815134,-0.10222600184348463
India,Maharashtra,Nagpur,"Ram Nagar, Nagpur - MPCB",2025-11-24 19:00:00,21.143383,79.048912,32.0,6.0,32.0,57.0,134.0,186.0,21.0,7,2025-11-24 19:00:00,19,0,388.2840236686391,186.0,Very Poor,-0.16550972444396242,0.344986402813467,-0.24861023874494598
India,Maharashtra,Nanded,"Sneh Nagar, Nanded - MPCB",2025-11-24 19:00:00,19.173852,77.296291,24.0,4.0,18.0,56.0,111.0,77.0,4.0,7,2025-11-24 19:00:00,19,0,341.42011834319527,111.0,Very Poor,-1.3744640606685559,-0.925163406253302,-0.1383867164508151
India,Maharashtra,Nashik,"Gangapur Road, Nashik - MPCB",2025-11-24 19:00:00,20.0073285,73.7762427,32.0,3.0,5.0,12.0,94.0,69.0,,6,2025-11-24 19:00:00,19,0,388.2840236686391,94.0,Very Poor,-1.9005485164759486,0.34725824080709755,0.011984518427461337
India,Maharashtra,Nashik,"Hirawadi, Nashik - MPCB",2025-11-24 19:00:00,20.021503,73.813844,53.0,6.0,23.0,53.0,114.0,113.0,10.0,7,2025-11-24 19:00:00,19,0,276.1034482758621,114.0,Poor,-0.535556794328952,-0.4703440057986581,-0.17382955334627254
India,Maharashtra,Nashik,"MIDC Ambad, Nashik - MPCB",2025-11-24 19:00:00,19.95022,73.73148,17.0,7.0,35.0,64.0,135.0,99.0,9.0,7,2025-11-24 19:00:00,19,0,300.0,135.0,Poor,-0.6904214929083787,-0.6658036589080017,0.2765745868855076
India,Maharashtra,Nashik,"Pandav Nagari, Nashik - MPCB",2025-11-24 19:00:00,19.9591346,73.7788008,27.0,,,54.0,,,,2,2025-11-24 19:00:00,19,0,358.9940828402367,54.0,Very Poor,-0.19567167215580322,-0.025315542277620912,0.0952502166205347
India,Maharashtra,Navi Mumbai,"Kopripada-Vashi, Navi Mumbai - MPCB",2025-11-24 19:00:00,19.090337,73.014232,28.0,6.0,36.0,47.0,108.0,169.0,17.0,7,2025-11-24 19:00:00,19,0,364.85207100591714,169.0,Very Poor,-0.5099985148482664,0.11419417920378847,0.08822695701993986
India,Maharashtra,Navi Mumbai,"Mahape, Navi Mumbai - MPCB",2025-11-24 19:00:00,19.1135051,73.008978,134.0,3.0,36.0,8.0,119.0,23.0,25.0,7,2025-11-24 19:00:00,19,0,112.95973154362416,134.0,Moderate,-0.04361605094028864,0.9486695669710802,-0.5384376644218573
India,Maharashtra,Navi Mumbai,"Nerul, Navi Mumbai - MPCB",2025-11-24 19:00:00,19.008751,73.01662,,4.0,36.0,,,254.0,,3,2025-11-24 19:00:00,19,0,401.72,254.0,Severe,0.18163751957998947,0.12180620159885998,-0.5987693139372819
India,Maharashtra,Navi Mumbai,"Sanpada, Navi Mumbai - MPCB",2025-11-24 19:00:00,19.0575752,73.0151367,42.0,9.0,21.0,15.0,108.0,163.0,15.0,7,2025-11-24 19:00:00,19,0,450.5,163.0,Severe,-0.5583024616955158,0.2848517256080396,0.6630472355687645
India,Maharashtra,Navi Mumbai,"Sector-2E Kalamboli, Navi Mumbai - MPCB",2025-11-24 19:00:00,19.02579,73.10297,27.0,10.0,45.0,56.0,112.0,116.0,3.0,7,2025-11-24 19:00:00,19,0,358.9940828402367,116.0,Very Poor,-0.34955070143767175,-1.0652288390809357,0.8826032817671854
India,Maharashtra,Navi Mumbai,"Tondare-Taloja, Navi Mumbai - MPCB",2025-11-24 19:00:00,19.063,73.1209,42.0,7.0,20.0,21.0,83.0,103.0,3.0,7,2025-11-24 19:00:00,19,0,450.5,103.0,Severe,-1.1824332310242773,-0.6834218163576026,0.5996023906216088
India,Maharashtra,Parbhani,"Masoom Colony, Parbhani - MPCB",2025-11-24 19:00:00,19.265594,76.761463,10.0,4.0,56.0,10.0,105.0,88.0,7.0,7,2025-11-24 19:00:00,19,0,200.0,105.0,Moderate,-1.404332690522837,-0.30414280625473683,0.9733610710160611
India,Maharashtra,Pimpri-Chinchwad,"Gavalinagar, Pimpri Chinchwad - MPCB",2025-11-24 19:00:00,18.63673,73.82487,35.0,,,70.0,,,,2,2025-11-24 19:00:00,19,0,407.1875,70.0,Severe,0.043068451700949105,-0.1899568350610504,-0.18711547838044326
India,Maharashtra,Pimpri-Chinchwad,"Park Street Wakad, Pimpri Chinchwad - MPCB",2025-11-24 19:00:00,18.59051,73.77946,23.0,3.0,52.0,74.0,110.0,109.0,2.0,7,2025-11-24 19:00:00,19,0,335.5621301775148,110.0,Very Poor,-0.7589577733689719,-1.2660801523983327,-0.1698159691692802
India,Maharashtra,Pimpri-Chinchwad,"Savta Mali Nagar, Pimpri-Chinchwad - IITM",2025-11-24 19:00:00,18.614767,73.799516,71.0,,64.0,54.0,117.0,129.0,,5,2025-11-24 19:00:00,19,0,307.13953488372096,129.0,Very Poor,0.4509471321847903,-0.14456235513561294,0.11567844888075257
India,Maharashtra,Pimpri-Chinchwad,"Thergaon, Pimpri Chinchwad - MPCB",2025-11-24 19:00:00,18.616318,73.765797,53.0,5.0,31.0,49.0,95.0,70.0,2.0,7,2025-11-24 19:00:00,19,0,131.72413793103448,95.0,Moderate,-0.903459417345183,-1.0583187760176176,0.04261771901478375
India,Maharashtra,Pune,"Bhumkar Nagar, Pune - IITM",2025-11-24 19:00:00,18.60577,73.749976,41.0,,6.0,38.0,128.0,124.0,,5,2025-11-24 19:00:00,19,0,444.3125,128.0,Severe,-0.8149807188990301,0.13179997015949352,-0.06356190819315065
India,Maharashtra,Pune,"Hadapsar, Pune - IITM",2025-11-24 19:00:00,18.501793,73.927532,77.0,,,21.0,,,,2,2025-11-24 19:00:00,19,0,21.0,77.0,Good,0.2817372667412236,0.299252841882578,0.086170081258197
India,Maharashtra,Pune,"Katraj Dairy, Pune - MPCB",2025-11-24 19:00:00,18.45445,73.854155,38.0,5.0,42.0,62.0,92.0,54.0,4.0,7,2025-11-24 19:00:00,19,0,425.75,92.0,Severe,-0.9598317609943834,-1.0847316720488498,0.14611640684812724
India,Maharashtra,Pune,"Mhada Colony, Pune - IITM",2025-11-24 19:00:00,18.57304,73.927715,43.0,,54.0,80.0,125.0,145.0,,5,2025-11-24 19:00:00,19,0,456.6875,145.0,Severe,0.23391209520850065,-0.36104540055359896,-0.13894068824994243
India,Maharashtra,Pune,"Panchawati_Pashan, Pune - IITM",2025-11-24 19:00:00,18.536457,73.805454,29.0,,17.0,34.0,,,,3,2025-11-24 19:00:00,19,0,370.7100591715976,34.0,Very Poor,-0.59331249004311,0.21415213517769893,0.10411664028569209
India,Maharashtra,Pune,"Revenue Colony-Shivajinagar, Pune - IITM",2025-11-24 19:00:00,18.530085,73.849598,90.0,,,35.0,110.0,101.0,10.0,5,2025-11-24 19:00:00,19,0,235.1379310344828,110.0,Poor,0.04123143768359408,-0.3457776709885276,0.04205931155875281
India,Maharashtra,Pune,"Savitribai Phule Pune University, Pune - MPCB",2025-11-24 19:00:00,18.547056,73.826908,27.0,2.0,15.0,63.0,114.0,70.0,2.0,7,2025-11-24 19:00:00,19,0,358.9940828402367,114.0,Very Poor,-1.494151266924661,-1.1151638780179443,-0.5336026456905194
India,Maharashtra,Pune,"Transport Nagar-Nigdi, Pune - IITM",2025-11-24 19:00:00,18.664282,73.763966,34.0,,,58.0,,,,2,2025-11-24 19:00:00,19,0,400.0,58.0,Very Poor,-0.06306856266894005,-0.06760400699269818,-0.01981183730278157
India,Maharashtra,Sangli,"Vijay Nagar, Sangli - MPCB",2025-11-24 19:00:00,16.5038,74.3623,30.0,3.0,29.0,35.0,128.0,147.0,6.0,7,2025-11-24 19:00:00,19,0,376.5680473372781,147.0,Very Poor,-0.9415045769352905,-0.4929166731582377,-0.13057309131098543
India,Maharashtra,Solapur,"Dnyaneshwar Nagar, Solapur - MPCB",2025-11-24 19:00:00,17.6336264,75.9132495,13.0,12.0,,54.0,78.0,54.0,5.0,6,2025-11-24 19:00:00,19,0,242.6086956521739,78.0,Poor,-0.9844624621752623,-1.0093199359650182,1.403440103530745
India,Maharashtra,Solapur,"Ratandeep Housing Society, Solapur - MPCB",2025-11-24 19:00:00,17.65439,75.90649,28.0,5.0,41.0,49.0,97.0,73.0,2.0,7,2025-11-24 19:00:00,19,0,364.85207100591714,97.0,Very Poor,-1.1128589390913295,-1.064642865817408,0.36688183772523464
India,Maharashtra,Thane,"Kasarvadavali, Thane - MPCB",2025-11-24 19:00:00,19.26777,72.97182,24.0,7.0,37.0,63.0,129.0,,3.0,6,2025-11-24 19:00:00,19,0,341.42011834319527,129.0,Very Poor,-0.3482305772826535,-1.0253133672941601,0.18476631765085333
India,Maharashtra,Thane,"Upvan Fort, Thane - MPCB",2025-11-24 19:00:00,19.222279,72.957979,37.0,,45.0,88.0,102.0,78.0,1.0,6,2025-11-24 19:00:00,19,0,419.5625,102.0,Severe,-0.4527194248750328,-1.548506669542966,0.04888623392343512
India,Maharashtra,Ulhasnagar,"Sidhi Vinayak Nagar, Ulhasnagar - MPCB",2025-11-24 19:00:00,19.235581,73.159121,28.0,6.0,19.0,64.0,159.0,182.0,10.0,7,2025-11-24 19:00:00,19,0,364.85207100591714,182.0,Very Poor,-0.27752400717592446,-0.4517534567607869,-0.36909754647007065
India,Maharashtra,Virar,"Bolinj, Virar - MPCB",2025-11-24 19:00:00,19.445821,72.7988231,30.0,3.0,35.0,71.0,142.0,208.0,5.0,7,2025-11-24 19:00:00,19,0,376.5680473372781,208.0,Very Poor,-0.22957082552747035,-0.8641505620751716,-0.6844146322815821
India,Meghalaya,Shillong,"Lumpyngngad, Shillong - Meghalaya PCB",2025-11-24 19:00:00,25.5586,91.8985,8.0,,,8.0,16.0,,,3,2025-11-24 19:00:00,19,0,174.9367088607595,16.0,Moderate,-1.603462274522974,0.3034820352916235,1.0963563778837613
India,Nagaland,Kohima,"PWD Junction, Kohima - NPCB",2025-11-24 19:00:00,25.6635413,94.0989878,10.0,1.0,4.0,20.0,65.0,67.0,73.0,7,2025-11-24 19:00:00,19,0,200.0,73.0,Moderate,-2.1355551939491195,4.284644406908178,-0.736005997088325
India,Odisha,Angul,"Hakimapada, Angul - OSPCB",2025-11-24 19:00:00,20.832874,85.104082,45.0,9.0,29.0,94.0,204.0,319.0,40.0,7,2025-11-24 19:00:00,19,0,469.0625,319.0,Severe,1.6544179274033421,1.4827788196646285,-1.0868962398304272
India,Odisha,Balasore,"Kalidaspur, Balasore - OSPCB",2025-11-24 19:00:00,21.51161,86.89088,48.0,3.0,26.0,61.0,209.0,290.0,14.0,7,2025-11-24 19:00:00,19,0,487.625,290.0,Severe,0.6821786737947201,0.036418153968559026,-1.2027729892062615
India,Odisha,Barbil,"Forest Office, Barbil - OSPCB",2025-11-24 19:00:00,22.1166054,85.3945546,47.0,3.0,19.0,51.0,150.0,252.0,18.0,7,2025-11-24 19:00:00,19,0,481.4375,252.0,Severe,-0.004971562044166186,0.3282707780361918,-0.997640597871533
India,Odisha,Baripada,"Meher Colony, Baripada - OSPCB",2025-11-24 19:00:00,21.941841,86.728318,71.0,2.0,36.0,63.0,144.0,235.0,7.0,7,2025-11-24 19:00:00,19,0,388.48837209302326,235.0,Very Poor,0.3945888506854546,-0.6140090480597407,-1.152237309030166
India,Odisha,Bhubaneswar,"Lingraj Mandir, Bhubaneswar - OSPCB",2025-11-24 19:00:00,20.24079,85.836784,48.0,6.0,30.0,149.0,141.0,295.0,19.0,7,2025-11-24 19:00:00,19,0,487.625,295.0,Severe,1.2764571082195935,-0.6168053611094874,-1.8545499112184454
India,Odisha,Bhubaneswar,"Patia, Bhubaneswar - OSPCB",2025-11-24 19:00:00,20.34652,85.8163,27.0,5.0,21.0,104.0,170.0,242.0,7.0,7,2025-11-24 19:00:00,19,0,393.8604651162791,242.0,Very Poor,0.2874642257622706,-0.991003357556801,-1.119845179785533
India,Odisha,Bileipada,"Tata Township, Bileipada - OSPCB",2025-11-24 19:00:00,22.06156703,85.47409613,37.0,4.0,7.0,12.0,139.0,63.0,8.0,7,2025-11-24 19:00:00,19,0,419.5625,139.0,Severe,-1.5322562916658848,-0.1631403870757239,0.1428325861922446
India,Odisha,Brajrajnagar,"GM Office, Brajrajnagar - OSPCB",2025-11-24 19:00:00,21.8004996,83.8396977,21.0,37.0,292.0,26.0,127.0,118.0,16.0,7,2025-11-24 19:00:00,19,0,323.8461538461538,292.0,Very Poor,4.747649405246278,-0.5311288437887687,7.622087159043077
India,Odisha,Byasanagar,"Ferro Chrome Colony, Byasanagar - OSPCB",2025-11-24 19:00:00,20.94185,86.1151,41.0,3.0,16.0,153.0,150.0,263.0,18.0,7,2025-11-24 19:00:00,19,0,444.3125,263.0,Severe,0.6977454098283238,-0.6924769372526592,-2.3481191273986455
India,Odisha,Cuttack,"CDA Area, Cuttack - OSPCB",2025-11-24 19:00:00,20.48891,85.84768,49.0,4.0,37.0,137.0,180.0,302.0,6.0,7,2025-11-24 19:00:00,19,0,493.8125,302.0,Severe,1.322405701667798,-1.348851416642366,-1.8455871714434076
India,Odisha,Keonjhar,"Jagamohanpur, Keonjhar - OSPCB",2025-11-24 19:00:00,21.6439,85.599355,45.0,11.0,34.0,18.0,152.0,95.0,24.0,7,2025-11-24 19:00:00,19,0,469.0625,152.0,Severe,-0.16244662248896083,0.8246263930327468,0.9909013349495682
India,Odisha,Nayagarh,"Dabuna, Nayagarh - OSPCB",2025-11-24 19:00:00,21.847279,85.416905,26.0,,,21.0,107.0,88.0,10.0,5,2025-11-24 19:00:00,19,0,353.1360946745562,107.0,Very Poor,-1.077079331184481,-0.20499999746934844,0.8294439170923736
India,Odisha,Rairangpur,"Divisional Forest Office, Rairangpur - OSPCB",2025-11-24 19:00:00,22.265816,86.174829,88.0,,,40.0,,,,2,2025-11-24 19:00:00,19,0,40.0,88.0,Good,0.5871165873779196,0.10340286424648952,-0.2624803706073858
India,Odisha,Rourkela,"Fertilizer Township, Rourkela - OSPCB",2025-11-24 19:00:00,22.18972222,84.86277778,28.0,,11.0,,90.0,97.0,9.0,5,2025-11-24 19:00:00,19,0,364.85207100591714,97.0,Very Poor,-1.237039372655698,-0.5462474690741319,0.1294823362010269
India,Odisha,Rourkela,"Raghunathpali, Rourkela - OSPCB",2025-11-24 19:00:00,22.220833,84.809444,80.0,2.0,13.0,19.0,108.0,162.0,5.0,7,2025-11-24 19:00:00,19,0,332.4651162790698,162.0,Very Poor,-0.674676667425642,-0.38124022817122827,-0.6669344816102244
India,Odisha,Rourkela,"Sector-2, Rourkela - OSPCB",2025-11-24 19:00:00,22.245,84.88111111,36.0,,,,69.0,62.0,,3,2025-11-24 19:00:00,19,0,413.375,69.0,Severe,-1.0135598574978015,-0.1831894657995436,0.40422706202377195
India,Odisha,Talcher,"Talcher Coalfields,Talcher - OSPCB",2025-11-24 19:00:00,20.9360711,85.1707021,60.0,6.0,86.0,17.0,215.0,249.0,44.0,7,2025-11-24 19:00:00,19,0,399.2325581395349,249.0,Very Poor,1.565446933415777,2.4207278021637104,0.11319503514095054
India,Odisha,Tensa,"Barsua Iron Ore Mines, Tensa - OSPCB",2025-11-24 19:00:00,21.869985,85.167016,47.0,,,31.0,118.0,,30.0,4,2025-11-24 19:00:00,19,0,481.4375,118.0,Severe,-0.1499910610253436,1.1796287371196672,0.11631713366062565
India,Puducherry,Puducherry,"Jawahar Nagar, Puducherry - PPCC",2025-11-24 19:00:00,11.9309,79.8027,26.0,5.0,18.0,27.0,29.0,28.0,8.0,7,2025-11-24 19:00:00,19,0,353.1360946745562,29.0,Very Poor,-2.186627423778725,-0.49944772139126037,0.5699070964127431
India,Punjab,Amritsar,"Golden Temple, Amritsar - PPCB",2025-11-24 19:00:00,31.62,74.876512,28.0,7.0,35.0,33.0,99.0,100.0,16.0,7,2025-11-24 19:00:00,19,0,364.85207100591714,100.0,Very Poor,-0.9337846118851976,0.09977232170549874,0.5742545466683828
India,Punjab,Jalandhar,"Civil Line, Jalandhar - PPCB",2025-11-24 19:00:00,31.321907,75.578914,41.0,2.0,38.0,41.0,127.0,123.0,14.0,7,2025-11-24 19:00:00,19,0,444.3125,127.0,Severe,-0.7592033870227496,-0.024382386308568905,-0.3749655102906662
India,Punjab,Khanna,"Kalal Majra, Khanna - PPCB",2025-11-24 19:00:00,30.736056,76.209694,10.0,7.0,28.0,25.0,117.0,100.0,9.0,7,2025-11-24 19:00:00,19,0,231.72413793103448,117.0,Poor,-1.2846373063329575,-0.27435188444132574,0.8045363094752164
India,Punjab,Ludhiana,"Punjab Agricultural University, Ludhiana - PPCB",2025-11-24 19:00:00,30.9028,75.8086,73.0,,,16.0,147.0,184.0,21.0,5,2025-11-24 19:00:00,19,0,349.3488372093023,184.0,Very Poor,0.3266562848333645,0.7469244743127058,0.0833775955703124
India,Punjab,Mandi Gobindgarh,"RIMT University, Mandi Gobindgarh - PPCB",2025-11-24 19:00:00,30.649961,76.331442,69.0,6.0,24.0,34.0,160.0,186.0,9.0,7,2025-11-24 19:00:00,19,0,350.8837209302326,186.0,Very Poor,0.17415282943520022,-0.22943920583238842,-0.28157793999586916
India,Punjab,Patiala,"Model Town, Patiala - PPCB",2025-11-24 19:00:00,30.349388,76.366642,40.0,6.0,17.0,30.0,159.0,142.0,25.0,7,2025-11-24 19:00:00,19,0,438.125,159.0,Severe,-0.47486715780708005,0.9090912458932802,-0.12196121950480414
India,Punjab,Rupnagar,"Ratanpura, Rupnagar - Ambuja Cements",2025-11-24 19:00:00,31.0325454,76.5623046,65.0,,,,,,,1,2025-11-24 19:00:00,19,0,,65.0,Unknown,0.33700901280543827,-0.005213986262390252,-0.2055320638873142
India,Rajasthan,Ajmer,"Civil Lines,  Ajmer - RSPCB",2025-11-24 19:00:00,26.470859,74.646594,21.0,2.0,25.0,82.0,133.0,129.0,20.0,7,2025-11-24 19:00:00,19,0,323.8461538461538,133.0,Very Poor,-0.8031176421994507,0.019137873977927378,-0.9708449673833489
India,Rajasthan,Alwar,"Moti Doongri, Alwar - RSPCB",2025-11-24 19:00:00,27.554793,76.611536,62.0,14.0,67.0,36.0,100.0,78.0,34.0,7,2025-11-24 19:00:00,19,0,159.0344827586207,100.0,Moderate,0.5481308990104384,1.1775512482705088,1.403129521097771
India,Rajasthan,Banswara,"Rati Talai, Banswara - RSPCB",2025-11-24 19:00:00,23.55519,74.44001,35.0,6.0,45.0,131.0,140.0,122.0,13.0,7,2025-11-24 19:00:00,19,0,407.1875,140.0,Severe,0.29952040803230373,-1.0493343052276467,-0.8938343986078998
India,Rajasthan,Baran,"Bamboliya, Baran - RSPCB",2025-11-24 19:00:00,25.106006,76.469948,29.0,8.0,22.0,129.0,104.0,146.0,12.0,7,2025-11-24 19:00:00,19,0,370.7100591715976,146.0,Very Poor,-0.06280935013550064,-1.0956363669835425,-0.7763105624909712
India,Rajasthan,Barmer,"Railway Colony, Barmer - RSPCB",2025-11-24 19:00:00,25.747299,71.393989,27.0,5.0,23.0,75.0,118.0,76.0,13.0,7,2025-11-24 19:00:00,19,0,358.9940828402367,118.0,Very Poor,-0.9494739875834164,-0.4992765202965418,-0.328594901591418
India,Rajasthan,Bharatpur,"Krishna Nagar, Bharatpur - RSPCB",2025-11-24 19:00:00,27.215415,77.50873,69.0,13.0,48.0,115.0,161.0,131.0,6.0,7,2025-11-24 19:00:00,19,0,308.6744186046512,161.0,Very Poor,1.3628902561954708,-1.4315077102352411,0.024684216097930978
India,Rajasthan,Bhilwara,"Pratap Nagar, Bhilwara - RSPCB",2025-11-24 19:00:00,25.339605,74.618883,34.0,10.0,27.0,41.0,121.0,162.0,18.0,7,2025-11-24 19:00:00,19,0,400.0,162.0,Very Poor,-0.23020305098712163,0.2255410670246444,0.542653193353121
India,Rajasthan,Bhiwadi,"RIICO Ind. Area III, Bhiwadi - RSPCB",2025-11-24 19:00:00,28.194909,76.862296,45.0,13.0,51.0,44.0,200.0,324.0,8.0,7,2025-11-24 19:00:00,19,0,469.0625,324.0,Severe,1.6497157662901316,-0.3346657557121121,0.7022859199147764
India,Rajasthan,Bhiwadi,"Vasundhara Nagar_UIT, Bhiwadi - RSPCB",2025-11-24 19:00:00,28.207266,76.829265,44.0,5.0,70.0,67.0,237.0,266.0,20.0,7,2025-11-24 19:00:00,19,0,462.875,266.0,Severe,1.4865487806657975,0.30893137466433634,-0.5409124174019483
India,Rajasthan,Bikaner,"MM Ground, Bikaner - RSPCB",2025-11-24 19:00:00,28.018792,73.292658,70.0,11.0,74.0,73.0,210.0,164.0,9.0,7,2025-11-24 19:00:00,19,0,334.0,210.0,Very Poor,1.7101134489594263,-0.7303394866551398,0.39885910113601275
India,Rajasthan,Bundi,"New Colony, Bundi - RSPCB",2025-11-24 19:00:00,25.435774,75.644272,38.0,1.0,28.0,123.0,122.0,161.0,7.0,7,2025-11-24 19:00:00,19,0,425.75,161.0,Severe,-0.2823073572056946,-1.290459839810643,-1.678723757584487
India,Rajasthan,Chittorgarh,"Shastri Nagar, Chittorgarh - RSPCB",2025-11-24 19:00:00,24.892047,74.623527,29.0,4.0,45.0,107.0,112.0,150.0,31.0,7,2025-11-24 19:00:00,19,0,370.7100591715976,150.0,Very Poor,-0.04463873121328568,0.47770018982819257,-1.00008885852211
India,Rajasthan,Churu,"Subash Chowk, Churu - RSPCB",2025-11-24 19:00:00,28.296139,74.961696,13.0,5.0,37.0,142.0,174.0,169.0,4.0,7,2025-11-24 19:00:00,19,0,337.8372093023256,174.0,Very Poor,0.24758837803090597,-1.6801749416083798,-1.1351605916555114
India,Rajasthan,Dausa,"Khatikan Mohalla, Dausa - RSPCB",2025-11-24 19:00:00,26.895552,76.334753,60.0,12.0,54.0,133.0,130.0,120.0,4.0,7,2025-11-24 19:00:00,19,0,300.0,133.0,Poor,1.1200542634884356,-1.7983513684595742,-0.10358750805080634
India,Rajasthan,Dholpur,"Raja Ganj, Dholpur - RSPCB",2025-11-24 19:00:00,26.699557,77.898881,49.0,11.0,53.0,31.0,111.0,151.0,,6,2025-11-24 19:00:00,19,0,493.8125,151.0,Severe,0.1974854699491371,0.08425771258153672,1.0347928804025164
India,Rajasthan,Dungarpur,"Bhoiwada, Dungarpur - RSPCB",2025-11-24 19:00:00,23.837789,73.714926,25.0,6.0,25.0,130.0,136.0,206.0,4.0,7,2025-11-24 19:00:00,19,0,366.2325581395349,206.0,Very Poor,0.1926832923263948,-1.5564122911197105,-1.0947454278721502
India,Rajasthan,Hanumangarh,"Housing Board, Hanumangarh - RSPCB",2025-11-24 19:00:00,29.61075,74.283608,79.0,14.0,46.0,75.0,120.0,113.0,8.0,7,2025-11-24 19:00:00,19,0,276.1034482758621,120.0,Poor,0.9353845485946987,-0.9565275052630963,0.66738941300427
India,Rajasthan,Jaipur,"Adarsh Nagar, Jaipur - RSPCB",2025-11-24 19:00:00,26.902909,75.836858,37.0,23.0,65.0,64.0,135.0,215.0,22.0,7,2025-11-24 19:00:00,19,0,419.5625,215.0,Severe,1.8160455160511184,0.1391680951341312,2.23506294945435
India,Rajasthan,Jaipur,"Mansarovar Sector-12, Jaipur - RSPCB",2025-11-24 19:00:00,26.843698,75.766894,35.0,,,116.0,,,,2,2025-11-24 19:00:00,19,0,407.1875,116.0,Severe,0.3940231465848066,-0.6581111008249987,-0.7943519527121246
India,Rajasthan,Jaipur,"Police Commissionerate, Jaipur - RSPCB",2025-11-24 19:00:00,26.9164092,75.7994901,60.0,10.0,126.0,59.0,145.0,101.0,8.0,7,2025-11-24 19:00:00,19,0,235.1379310344828,145.0,Poor,1.364181648487237,-0.8689762150336188,1.3776896777469168
India,Rajasthan,Jaipur,"RIICO Sitapura, Jaipur - RSPCB",2025-11-24 19:00:00,26.786682,75.827928,43.0,12.0,75.0,110.0,174.0,216.0,4.0,7,2025-11-24 19:00:00,19,0,456.6875,216.0,Severe,1.6771333681166682,-1.4529173168286331,0.30186195522330816
India,Rajasthan,Jaipur,"Sector-2 Murlipura, Jaipur - RSPCB",2025-11-24 19:00:00,26.960669,75.771817,39.0,10.0,66.0,78.0,145.0,187.0,3.0,7,2025-11-24 19:00:00,19,0,431.9375,187.0,Severe,0.7919022942830704,-1.2211817599881147,0.5093325671759519
India,Rajasthan,Jaipur,"Shastri Nagar, Jaipur - RSPCB",2025-11-24 19:00:00,26.9502929,75.730943,75.0,20.0,92.0,52.0,154.0,249.0,16.0,7,2025-11-24 19:00:00,19,0,399.2325581395349,249.0,Very Poor,2.634103459039176,-0.12914023951328849,1.9040374066220993
India,Rajasthan,Jaisalmer,"Sadar Bazar, Jaisalmer - RSPCB",2025-11-24 19:00:00,26.912329,70.909168,43.0,15.0,56.0,105.0,155.0,122.0,6.0,7,2025-11-24 19:00:00,19,0,456.6875,155.0,Severe,1.0838815935682526,-1.3739249370245323,0.7810651793611981
India,Rajasthan,Jalore,"Mudtra Sili, Jalore - RSPCB",2025-11-24 19:00:00,25.344694,72.626208,63.0,7.0,72.0,93.0,172.0,162.0,6.0,7,2025-11-24 19:00:00,19,0,332.4651162790698,172.0,Very Poor,1.1747928931453675,-1.1422316299858681,-0.27032328170365016
India,Rajasthan,Jhalawar,"Rajlaxmi Nagar, Jhalawar - RSPCB",2025-11-24 19:00:00,24.588397,76.172782,50.0,5.0,64.0,129.0,109.0,190.0,12.0,7,2025-11-24 19:00:00,19,0,500.0,190.0,Severe,0.7934268609867137,-1.092280605892809,-1.0076121050639135
India,Rajasthan,Jhunjhunu,"Indra Nagar, Jhunjhunu - RSPCB",2025-11-24 19:00:00,28.108988,75.386577,34.0,8.0,66.0,105.0,199.0,176.0,6.0,7,2025-11-24 19:00:00,19,0,400.0,199.0,Very Poor,1.0690136681644944,-1.2140941196223332,-0.17840512324742605
India,Rajasthan,Jodhpur,"Collectorate, Jodhpur - RSPCB",2025-11-24 19:00:00,26.268249,73.0193853,42.0,11.0,11.0,48.0,161.0,156.0,16.0,7,2025-11-24 19:00:00,19,0,450.5,161.0,Severe,0.009360682765502077,0.06765803555082664,0.3014456478453027
India,Rajasthan,Jodhpur,"Digari Kalan, Jodhpur - RSPCB",2025-11-24 19:00:00,26.29581,73.082283,33.0,8.0,39.0,132.0,143.0,159.0,5.0,7,2025-11-24 19:00:00,19,0,394.14201183431953,159.0,Very Poor,0.48818755376075784,-1.591651146447632,-0.6830886811211704
India,Rajasthan,Jodhpur,"Jhalamand, Jodhpur - RSPCB",2025-11-24 19:00:00,26.215415,73.070156,27.0,12.0,36.0,94.0,144.0,160.0,6.0,7,2025-11-24 19:00:00,19,0,358.9940828402367,160.0,Very Poor,0.3908533199677978,-1.167682588830104,0.37121965077482827
India,Rajasthan,Jodhpur,"Mandor, Jodhpur - RSPCB",2025-11-24 19:00:00,26.358805,73.047444,18.0,5.0,24.0,124.0,113.0,146.0,8.0,7,2025-11-24 19:00:00,19,0,320.1860465116279,146.0,Very Poor,-0.4334684403131161,-1.2854195442919443,-0.9738840666911764
India,Rajasthan,Jodhpur,"Samrat Ashok Udhyan, Jodhpur - RSPCB",2025-11-24 19:00:00,26.253384,72.976571,37.0,8.0,50.0,121.0,164.0,175.0,6.0,7,2025-11-24 19:00:00,19,0,419.5625,175.0,Severe,0.8120075340395776,-1.3901028678179836,-0.5321851885421929
India,Rajasthan,Karauli,"Satyawati Vihar, Karauli - RSPCB",2025-11-24 19:00:00,26.506177,77.025989,19.0,10.0,31.0,70.0,108.0,104.0,2.0,7,2025-11-24 19:00:00,19,0,312.1301775147929,108.0,Very Poor,-0.6264459018253085,-1.2684071313018137,0.6558422379494803
India,Rajasthan,Kota,"Dhanmandi, Kota - RSPCB",2025-11-24 19:00:00,25.16409,75.858137,47.0,4.0,57.0,101.0,133.0,211.0,5.0,7,2025-11-24 19:00:00,19,0,481.4375,211.0,Severe,0.5665211845209024,-1.2284818391746708,-0.8394564853980219
India,Rajasthan,Kota,"Nayapura, Kota - RSPCB",2025-11-24 19:00:00,25.196024,75.855668,63.0,14.0,72.0,105.0,122.0,194.0,5.0,7,2025-11-24 19:00:00,19,0,357.0232558139535,194.0,Very Poor,1.633577569756597,-1.431495215493877,0.557680211235762
India,Rajasthan,Kota,"Shrinath Puram, Kota - RSPCB",2025-11-24 19:00:00,25.14389,75.821256,55.0,5.0,16.0,16.0,135.0,247.0,14.0,7,2025-11-24 19:00:00,19,0,397.6976744186047,247.0,Very Poor,-0.1829755027625224,0.36446690704629225,-0.28725797520312674
India,Rajasthan,Nagaur,"Karni Colony, Nagaur - RSPCB",2025-11-24 19:00:00,27.213494,73.734444,30.0,8.0,25.0,89.0,137.0,109.0,5.0,7,2025-11-24 19:00:00,19,0,376.5680473372781,137.0,Very Poor,-0.3317054671188131,-1.185279125588614,-0.1267915944947464
India,Rajasthan,Pali,"Indira Colony Vistar, Pali - RSPCB",2025-11-24 19:00:00,25.771061,73.340227,30.0,10.0,35.0,32.0,148.0,183.0,11.0,7,2025-11-24 19:00:00,19,0,376.5680473372781,183.0,Very Poor,-0.03930026145239507,-0.13658176209604445,0.7683374609313844
India,Rajasthan,Pratapgarh,"Pragati Nagar, Pratapgarh - RSPCB",2025-11-24 19:00:00,24.041198,74.780702,33.0,6.0,23.0,125.0,98.0,133.0,4.0,7,2025-11-24 19:00:00,19,0,394.14201183431953,133.0,Very Poor,-0.3212399684935289,-1.6180952703551559,-0.8981530518385488
India,Rajasthan,Rajsamand,"Dhoinda, Rajsamand - RSPCB",2025-11-24 19:00:00,25.03636,73.883502,26.0,14.0,28.0,139.0,150.0,193.0,13.0,7,2025-11-24 19:00:00,19,0,356.2558139534884,193.0,Very Poor,1.001203891411451,-1.101698069578182,-0.18583143966650428
India,Rajasthan,Sawai Madhopur,"Sahu Nagar, Sawai Madhopur - RSPCB",2025-11-24 19:00:00,26.031443,76.359327,33.0,8.0,15.0,76.0,132.0,119.0,3.0,7,2025-11-24 19:00:00,19,0,394.14201183431953,132.0,Very Poor,-0.5134348776704037,-1.1726851201089532,-0.08545670828658052
India,Rajasthan,Sikar,"Radhakishan Pura, Sikar - RSPCB",2025-11-24 19:00:00,27.608912,75.153302,34.0,10.0,43.0,101.0,164.0,190.0,5.0,7,2025-11-24 19:00:00,19,0,400.0,190.0,Very Poor,0.7387917512279779,-1.2501337446838852,-0.06795280498230373
India,Rajasthan,Sirohi,"Vedhaynath Colony, Sirohi - RSPCB",2025-11-24 19:00:00,24.885261,72.857549,34.0,3.0,53.0,95.0,118.0,108.0,13.0,7,2025-11-24 19:00:00,19,0,400.0,118.0,Very Poor,-0.31011418787208633,-0.7035163073007046,-0.6621384548665805
India,Rajasthan,Sri Ganganagar,"Old City, Sri Ganganagar - RSPCB",2025-11-24 19:00:00,29.931624,73.864511,155.0,20.0,106.0,115.0,221.0,59.0,7.0,7,2025-11-24 19:00:00,19,0,180.73154362416108,221.0,Moderate,3.931198229334959,-1.5570823534713765,0.9072961606238898
India,Rajasthan,Tonk,"Shastri Nagar, Tonk - RSPCB",2025-11-24 19:00:00,26.159933,75.780517,44.0,13.0,56.0,46.0,278.0,298.0,2.0,7,2025-11-24 19:00:00,19,0,462.875,298.0,Severe,2.0270365333458766,-0.7235923308428693,0.7247452233809989
India,Rajasthan,Udaipur,"Ashok Nagar, Udaipur - RSPCB",2025-11-24 19:00:00,24.5886166,73.6321397,38.0,,,74.0,,,,2,2025-11-24 19:00:00,19,0,425.75,74.0,Severe,0.11733709836967218,-0.23134278656075172,-0.266601028165302
India,Sikkim,Gangtok,"Zero Point GICI, Gangtok - SSPCB",2025-11-24 19:00:00,27.33853,88.614099,7.0,1.0,6.0,95.0,27.0,27.0,1.0,7,2025-11-24 19:00:00,19,0,162.40506329113924,95.0,Moderate,-2.4639702519806566,-1.6198881250033115,-0.7605099062206867
India,TamilNadu,Ariyalur,"Keelapalur, Ariyalur - TNPCB",2025-11-24 19:00:00,11.06825,79.07033,,1.0,9.0,,13.0,14.0,13.0,5,2025-11-24 19:00:00,19,0,23.333333333333336,14.0,Good,-2.317157493320298,-0.3725443555526239,-0.533628788348662
India,TamilNadu,Chennai,"Alandur Bus Depot, Chennai - CPCB",2025-11-24 19:00:00,12.9099161,80.1076538,33.0,,,4.0,,,,2,2025-11-24 19:00:00,19,0,394.14201183431953,33.0,Very Poor,-0.48964247236756864,0.482194020251433,0.7019251064255456
India,TamilNadu,Chennai,"Arumbakkam, Chennai - TNPCB",2025-11-24 19:00:00,13.0664,80.2112,,2.0,14.0,,68.0,44.0,2.0,5,2025-11-24 19:00:00,19,0,72.9655172413793,68.0,Satisfactory,-1.7779611552597934,-1.0733334121610734,-0.3848582211349147
India,TamilNadu,Chennai,"Kodungaiyur, Chennai - TNPCB",2025-11-24 19:00:00,13.1278,80.2642,,6.0,14.0,,49.0,55.0,,4,2025-11-24 19:00:00,19,0,91.55172413793105,55.0,Satisfactory,-1.4511914495222198,-0.16423237085276224,0.026685880761907373
India,TamilNadu,Chennai,"Manali Village, Chennai - TNPCB",2025-11-24 19:00:00,13.1662,80.2584,16.0,2.0,4.0,37.0,44.0,21.0,14.0,7,2025-11-24 19:00:00,19,0,285.6521739130435,44.0,Poor,-2.5660871876091687,-0.11256921392430468,-0.11497530035731049
India,TamilNadu,Chennai,"Manali, Chennai - CPCB",2025-11-24 19:00:00,13.164544,80.26285,16.0,,,11.0,56.0,,,3,2025-11-24 19:00:00,19,0,285.6521739130435,56.0,Poor,-1.2223084768850203,0.3156516849732161,0.9159238730343366
India,TamilNadu,Chennai,"Perungudi, Chennai - TNPCB",2025-11-24 19:00:00,12.9533,80.2357,38.0,5.0,4.0,10.0,55.0,43.0,4.0,7,2025-11-24 19:00:00,19,0,425.75,55.0,Severe,-2.12201491377179,-0.542365796650447,0.49564329926319084
India,TamilNadu,Chennai,"Velachery Res. Area, Chennai - CPCB",2025-11-24 19:00:00,13.0052189,80.2398125,39.0,4.0,13.0,8.0,76.0,34.0,15.0,7,2025-11-24 19:00:00,19,0,431.9375,76.0,Severe,-1.9249239054726006,0.25979796075091355,0.34320200606904805
India,TamilNadu,Coimbatore,"SIDCO Kurichi, Coimbatore - TNPCB",2025-11-24 19:00:00,10.942451,76.978996,22.0,2.0,16.0,4.0,37.0,33.0,21.0,7,2025-11-24 19:00:00,19,0,329.70414201183434,37.0,Very Poor,-2.5165671514477563,0.6970182228247215,0.3135259039675495
India,TamilNadu,Cuddalore,"Kudikadu, Cuddalore - TNPCB",2025-11-24 19:00:00,11.6829898,79.7532099,,5.0,19.0,14.0,,24.0,19.0,5,2025-11-24 19:00:00,19,0,40.0,24.0,Good,-1.2867963325907277,0.5253620128968298,0.3010973736376841
India,TamilNadu,Cuddalore,"Semmandalam, Cuddalore - TNPCB",2025-11-24 19:00:00,11.7637683,79.7499835,,2.0,5.0,2.0,35.0,39.0,,5,2025-11-24 19:00:00,19,0,64.51724137931035,39.0,Satisfactory,-2.4028970965363396,0.3619981581500735,0.08684481814172276
India,TamilNadu,Dindigul,"Mendonsa Colony, Dindigul - TNPCB",2025-11-24 19:00:00,10.358535,77.984321,29.0,2.0,17.0,,7.0,,22.0,5,2025-11-24 19:00:00,19,0,370.7100591715976,29.0,Very Poor,-1.6143512194671956,0.3788038839015039,-0.6007474278820396
India,TamilNadu,Gummidipoondi,"Anthoni Pillai Nagar, Gummidipoondi - TNPCB",2025-11-24 19:00:00,13.4127,80.1081,,2.0,3.0,,110.0,161.0,28.0,5,2025-11-24 19:00:00,19,0,331.69767441860466,161.0,Very Poor,-0.9570396867540418,0.933581663727519,-1.1100108083265077
India,TamilNadu,Karur,"Kamadenu Nagar, Karur - TNPCB",2025-11-24 19:00:00,10.96782,78.080882,,3.0,6.0,7.0,,11.0,16.0,5,2025-11-24 19:00:00,19,0,20.0,16.0,Good,-1.738636990826214,0.4161836614966336,0.03430385510217187
India,TamilNadu,Madurai,"Uchapatti, Madurai - TNPCB",2025-11-24 19:00:00,9.865935,78.022669,15.0,4.0,16.0,1.0,10.0,,33.0,6,2025-11-24 19:00:00,19,0,271.30434782608694,33.0,Poor,-1.9737645674961006,1.6495035761367243,0.3268127554582295
India,TamilNadu,Nagapattinam,"Velippalayam, Nagapattinam - TNPCB",2025-11-24 19:00:00,10.798548,79.838212,20.0,,,1.0,,,,2,2025-11-24 19:00:00,19,0,317.98816568047334,20.0,Very Poor,-0.7021178261928622,0.5156589881425317,0.8571511236362941
India,TamilNadu,Ooty,"Bombay Castel, Ooty - TNPCB",2025-11-24 19:00:00,11.4068288,76.7138973,,,3.0,6.0,11.0,11.0,15.0,5,2025-11-24 19:00:00,19,0,18.75,15.0,Good,-2.3177929610445656,0.172949197828778,0.7728810846427757
India,TamilNadu,Perundurai,"SIPCOT Industrial Park, Perundurai - TNPCB",2025-11-24 19:00:00,11.258242,77.552761,18.0,2.0,8.0,6.0,21.0,15.0,13.0,7,2025-11-24 19:00:00,19,0,306.2721893491124,21.0,Very Poor,-2.8948594515283803,0.09388147497115114,0.38486737574743163
India,TamilNadu,Pudukottai,"SIPCOT Nathampannai, Pudukottai - TNPCB",2025-11-24 19:00:00,10.423417,78.784889,,3.0,14.0,,34.0,26.0,13.0,5,2025-11-24 19:00:00,19,0,43.333333333333336,34.0,Good,-1.919430352444523,-0.3667280118117693,-0.2665310740403999
India,TamilNadu,Ramanathapuram,"Chalai Bazaar, Ramanathapuram - TNPCB",2025-11-24 19:00:00,9.36399,78.831977,25.0,1.0,7.0,5.0,14.0,,13.0,6,2025-11-24 19:00:00,19,0,347.27810650887574,25.0,Very Poor,-2.245999689353192,0.25295007075045417,-0.12098192003168531
India,TamilNadu,Salem,"Sona College of Technology, Salem - TNPCB",2025-11-24 19:00:00,11.679111,78.125052,12.0,,,5.0,,24.0,18.0,4,2025-11-24 19:00:00,19,0,228.2608695652174,24.0,Poor,-1.4166686717415469,0.5022068225185704,1.1524002541700165
India,TamilNadu,Thanjavur,"Parisutham Nagar, Thanjavur - TNPCB",2025-11-24 19:00:00,10.7654824,79.1389968,,1.0,3.0,,14.0,12.0,17.0,5,2025-11-24 19:00:00,19,0,21.25,17.0,Good,-2.3718794539808195,-0.08218129471839834,-0.6406065288397189
India,TamilNadu,Thoothukudi,"Meelavittan, Thoothukudi - TNPCB",2025-11-24 19:00:00,8.816428,78.099039,93.0,,11.0,31.0,34.0,,6.0,5,2025-11-24 19:00:00,19,0,34.0,93.0,Good,-0.49444114070362893,-0.5631529886899707,-0.1963932984405707
India,TamilNadu,Tiruchirappalli,"St Joseph College, Tiruchirappalli - TNPCB",2025-11-24 19:00:00,10.830158,78.691849,,1.0,1.0,10.0,15.0,13.0,16.0,6,2025-11-24 19:00:00,19,0,21.666666666666668,16.0,Good,-2.7077799171776853,0.2722365140228674,-0.11264051724378601
India,TamilNadu,Tirupur,"Kumaran College, Tirupur - TNPCB",2025-11-24 19:00:00,11.0973603,77.3228673,22.0,,7.0,3.0,22.0,21.0,5.0,6,2025-11-24 19:00:00,19,0,329.70414201183434,22.0,Very Poor,-2.5315210554768006,-0.47913223392354026,1.099436965079218
India,TamilNadu,Virudhunagar,"Collectorate Office, Virudhunagar - TNPCB",2025-11-24 19:00:00,9.559382,77.948828,16.0,,,,,,,1,2025-11-24 19:00:00,19,0,285.6521739130435,16.0,Poor,-0.37758815671677737,0.005841800625964557,0.23028011180878918
India,Telangana,Hyderabad,"Bollaram Industrial Area, Hyderabad - TSPCB",2025-11-24 19:00:00,17.540891,78.358528,29.0,5.0,36.0,57.0,53.0,70.0,7.0,7,2025-11-24 19:00:00,19,0,370.7100591715976,70.0,Very Poor,-1.3489423380910364,-0.8384596561746911,0.22653433573081064
India,Telangana,Hyderabad,"Central University, Hyderabad - TSPCB",2025-11-24 19:00:00,17.460103,78.334361,22.0,3.0,27.0,10.0,,51.0,6.0,6,2025-11-24 19:00:00,19,0,329.70414201183434,51.0,Very Poor,-1.614763236463104,-0.308794895281947,0.42611977041891763
India,Telangana,Hyderabad,"ECIL Kapra, Hyderabad - TSPCB",2025-11-24 19:00:00,17.470431,78.566959,24.0,4.0,13.0,43.0,89.0,54.0,13.0,7,2025-11-24 19:00:00,19,0,341.42011834319527,89.0,Very Poor,-1.718792917849319,-0.19932203825815883,-0.03011028487399031
India,Telangana,Hyderabad,"ICRISAT Patancheru, Hyderabad - TSPCB",2025-11-24 19:00:00,17.5184,78.278777,20.0,3.0,12.0,51.0,72.0,77.0,7.0,7,2025-11-24 19:00:00,19,0,317.98816568047334,77.0,Very Poor,-1.839961262627282,-0.6853820969332599,-0.20467371339178259
India,Telangana,Hyderabad,"IDA Pashamylaram, Hyderabad - TSPCB",2025-11-24 19:00:00,17.5316895,78.218939,63.0,3.0,19.0,21.0,46.0,55.0,4.0,7,2025-11-24 19:00:00,19,0,91.55172413793105,63.0,Satisfactory,-1.629411907757946,-0.6630693010655275,0.011929779265411881
India,Telangana,Hyderabad,"IITH Kandi, Hyderabad - TSPCB",2025-11-24 19:00:00,17.585705,78.126199,17.0,2.0,14.0,26.0,85.0,53.0,13.0,7,2025-11-24 19:00:00,19,0,300.0,85.0,Poor,-2.117279990948689,-0.01108136168502561,0.003185587851967125
India,Telangana,Hyderabad,"Kokapet, Hyderabad - TSPCB",2025-11-24 19:00:00,17.393559,78.339194,32.0,2.0,15.0,24.0,119.0,47.0,12.0,7,2025-11-24 19:00:00,19,0,388.2840236686391,119.0,Very Poor,-1.7297137350667193,-0.03413921978698239,-0.12827373142454654
India,Telangana,Hyderabad,"Kompally Municipal Office, Hyderabad - TSPCB",2025-11-24 19:00:00,17.544899,78.486949,15.0,5.0,14.0,23.0,79.0,66.0,12.0,7,2025-11-24 19:00:00,19,0,271.30434782608694,79.0,Poor,-1.9257800348029905,-0.07539837830941712,0.46405610239618045
India,Telangana,Hyderabad,"Nacharam_TSIIC IALA, Hyderabad - TSPCB",2025-11-24 19:00:00,17.429398,78.569354,27.0,4.0,11.0,27.0,89.0,62.0,11.0,7,2025-11-24 19:00:00,19,0,358.9940828402367,89.0,Very Poor,-1.7990392181367303,-0.16631945530786407,0.13595197475970544
India,Telangana,Hyderabad,"New Malakpet, Hyderabad - TSPCB",2025-11-24 19:00:00,17.37206,78.50864,37.0,3.0,13.0,22.0,90.0,76.0,15.0,7,2025-11-24 19:00:00,19,0,419.5625,90.0,Severe,-1.6442105346010085,0.18511792021630696,-0.07591689630183224
India,Telangana,Hyderabad,"Ramachandrapuram, Hyderabad - TSPCB",2025-11-24 19:00:00,17.528544,78.286195,26.0,2.0,11.0,31.0,69.0,45.0,13.0,7,2025-11-24 19:00:00,19,0,353.1360946745562,69.0,Very Poor,-2.120236277579739,-0.0845381056780425,-0.13125326892976372
India,Telangana,Hyderabad,"Sanathnagar, Hyderabad - TSPCB",2025-11-24 19:00:00,17.4559458,78.4332152,41.0,,27.0,14.0,,65.0,12.0,5,2025-11-24 19:00:00,19,0,444.3125,65.0,Severe,-0.9197646579150637,0.04228541980279702,0.6251368830687237
India,Telangana,Hyderabad,"Somajiguda, Hyderabad - TSPCB",2025-11-24 19:00:00,17.417094,78.457437,25.0,4.0,15.0,33.0,71.0,67.0,19.0,7,2025-11-24 19:00:00,19,0,347.27810650887574,71.0,Very Poor,-1.764300817264861,0.31297430638634943,0.05496416141477794
India,Telangana,Hyderabad,"Zoo Park, Hyderabad - TSPCB",2025-11-24 19:00:00,17.349694,78.451437,88.0,3.0,30.0,23.0,112.0,152.0,4.0,7,2025-11-24 19:00:00,19,0,324.7906976744186,152.0,Very Poor,-0.26084770727508433,-0.5389342258729138,-0.43856454463703215
India,Tripura,Agartala,"Bardowali, Agartala - Tripura SPCB",2025-11-24 19:00:00,23.8175497,91.2726974,,2.0,,4.0,,118.0,28.0,4,2025-11-24 19:00:00,19,0,293.17241379310343,118.0,Poor,-0.8483909424276279,1.3500865344000417,-0.061281300862584404
India,Uttar_Pradesh,Agra,"Manoharpur, Agra - UPPCB",2025-11-24 19:00:00,27.23711,78.01936,26.0,2.0,27.0,10.0,139.0,149.0,57.0,7,2025-11-24 19:00:00,19,0,353.1360946745562,149.0,Very Poor,-0.8843177110652284,3.3723552466320386,-0.48869246301696784
India,Uttar_Pradesh,Agra,"Rohta, Agra - UPPCB",2025-11-24 19:00:00,27.106972,78.000111,49.0,7.0,18.0,13.0,178.0,,33.0,6,2025-11-24 19:00:00,19,0,493.8125,178.0,Severe,-0.11953637206879747,1.672006079355932,0.006280113166662871
India,Uttar_Pradesh,Agra,"Sanjay Palace, Agra - UPPCB",2025-11-24 19:00:00,27.19865833,78.00598056,39.0,,15.0,107.0,120.0,151.0,16.0,6,2025-11-24 19:00:00,19,0,431.9375,151.0,Severe,-0.1229675020969138,-0.5454495600125768,-0.9037700798062879
India,Uttar_Pradesh,Agra,"Sector-3B Avas Vikas Colony, Agra - UPPCB",2025-11-24 19:00:00,27.19412,77.96237,18.0,8.0,28.0,11.0,196.0,,9.0,6,2025-11-24 19:00:00,19,0,306.2721893491124,196.0,Very Poor,-0.42965492416809103,0.006238493717482966,0.7803673648078666
India,Uttar_Pradesh,Agra,"Shahjahan Garden, Agra - UPPCB",2025-11-24 19:00:00,27.169338,78.03582,39.0,,20.0,8.0,175.0,99.0,21.0,6,2025-11-24 19:00:00,19,0,431.9375,175.0,Severe,-0.6890325220092292,0.8146650750756229,0.4226999622481406
India,Uttar_Pradesh,Agra,"Shastripuram, Agra - UPPCB",2025-11-24 19:00:00,27.19862,77.92066,28.0,3.0,41.0,7.0,150.0,77.0,17.0,7,2025-11-24 19:00:00,19,0,364.85207100591714,150.0,Very Poor,-1.1479543912855588,0.5000118907526933,0.38752501613989493
India,Uttar_Pradesh,Baghpat,"Sardar Patel Inter College, Baghpat - UPPCB",2025-11-24 19:00:00,28.964949,77.278761,27.0,8.0,80.0,70.0,245.0,319.0,18.0,7,2025-11-24 19:00:00,19,0,413.42,319.0,Severe,1.8970809707537133,0.15453764974732523,-0.014263287584547686
India,Uttar_Pradesh,Bareilly,"Civil Lines, Bareilly - UPPCB",2025-11-24 19:00:00,28.359581,79.414455,86.0,2.0,2.0,16.0,84.0,62.0,17.0,7,2025-11-24 19:00:00,19,0,104.41379310344828,86.0,Moderate,-1.2808695910168986,0.38438402707871133,-0.6729229411654137
India,Uttar_Pradesh,Bareilly,"Rajendra Nagar, Bareilly - UPPCB",2025-11-24 19:00:00,28.38910936,79.42963708,30.0,1.0,10.0,1.0,144.0,103.0,35.0,7,2025-11-24 19:00:00,19,0,376.5680473372781,144.0,Very Poor,-1.5151730059568103,1.917709719010924,-0.4083356067291548
India,Uttar_Pradesh,Bulandshahr,"Yamunapuram, Bulandshahr - UPPCB",2025-11-24 19:00:00,28.406963,77.849831,60.0,17.0,117.0,93.0,283.0,358.0,36.0,7,2025-11-24 19:00:00,19,0,420.44,358.0,Severe,4.237624458286373,1.100885650359843,0.6927122774006754
India,Uttar_Pradesh,Firozabad,"Nagla Bhau, Firozabad - UPPCB",2025-11-24 19:00:00,27.168897,78.37696,18.0,2.0,17.0,2.0,93.0,67.0,21.0,7,2025-11-24 19:00:00,19,0,306.2721893491124,93.0,Very Poor,-2.0820049789463044,0.8123631555340924,0.21559034523119106
India,Uttar_Pradesh,Firozabad,"Vibhab Nagar, Firozabad - UPPCB",2025-11-24 19:00:00,27.1594,78.3953,22.0,,,1.0,,,,2,2025-11-24 19:00:00,19,0,329.70414201183434,22.0,Very Poor,-0.6729505947837923,0.5152077315348438,0.8393628715670655
India,Uttar_Pradesh,Ghaziabad,"Indirapuram, Ghaziabad - UPPCB",2025-11-24 19:00:00,28.646233,77.358075,64.0,12.0,83.0,130.0,,,25.0,5,2025-11-24 19:00:00,19,0,143.85074626865674,130.0,Moderate,1.9583936815597784,-0.2840331368915415,-0.1179583762129806
India,Uttar_Pradesh,Ghaziabad,"Loni, Ghaziabad - UPPCB",2025-11-24 19:00:00,28.757294,77.278792,73.0,9.0,114.0,49.0,331.0,397.0,27.0,7,2025-11-24 19:00:00,19,0,427.46,397.0,Severe,3.8607729948968346,1.093814573656698,-0.04293856488662451
India,Uttar_Pradesh,Ghaziabad,"Sanjay Nagar, Ghaziabad - UPPCB",2025-11-24 19:00:00,28.685382,77.453839,49.0,7.0,92.0,46.0,302.0,359.0,17.0,7,2025-11-24 19:00:00,19,0,493.8125,359.0,Severe,2.6369665502423594,0.4162450886707629,-0.07091749444497115
India,Uttar_Pradesh,Ghaziabad,"Vasundhara, Ghaziabad - UPPCB",2025-11-24 19:00:00,28.6603346,77.3572563,63.0,27.0,138.0,23.0,397.0,394.0,21.0,7,2025-11-24 19:00:00,19,0,426.92,397.0,Severe,5.530179682865168,0.781428853398718,3.0761817198802066
India,Uttar_Pradesh,Gorakhpur,"Madan Mohan Malaviya University of Technology, Gorakhpur - UPPCB",2025-11-24 19:00:00,26.730136,83.433859,7.0,1.0,11.0,,64.0,61.0,33.0,6,2025-11-24 19:00:00,19,0,162.40506329113924,64.0,Moderate,-2.144947784641606,1.1396111499389392,-0.6035986655965214
India,Uttar_Pradesh,Greater Noida,"Knowledge Park - III, Greater Noida - UPPCB",2025-11-24 19:00:00,28.47272,77.482,92.0,12.0,107.0,89.0,338.0,331.0,26.0,7,2025-11-24 19:00:00,19,0,415.58,338.0,Severe,4.309851642820766,0.5357804834512083,-0.26653799880150403
India,Uttar_Pradesh,Greater Noida,"Knowledge Park - V, Greater Noida - UPPCB",2025-11-24 19:00:00,28.557054,77.453663,69.0,13.0,115.0,146.0,432.0,434.0,14.0,7,2025-11-24 19:00:00,19,0,434.12,434.0,Severe,5.553407109280604,-0.6999942513860269,-0.8473346896348609
India,Uttar_Pradesh,Hapur,"Anand Vihar, Hapur - UPPCB",2025-11-24 19:00:00,28.725645,77.749675,62.0,6.0,38.0,50.0,338.0,414.0,35.0,7,2025-11-24 19:00:00,19,0,430.52,414.0,Severe,2.672175840010301,1.8340234502332717,-1.3530070306578623
India,Uttar_Pradesh,Jhansi,"Shivaji Nagar, Jhansi - UPPCB",2025-11-24 19:00:00,25.4547,78.6039,36.0,4.0,6.0,2.0,57.0,42.0,15.0,7,2025-11-24 19:00:00,19,0,413.375,57.0,Severe,-2.182750916413976,0.32028045282308887,0.3865594797747467
India,Uttar_Pradesh,Kanpur,"FTI Kidwai Nagar, Kanpur - UPPCB",2025-11-24 19:00:00,26.428282,80.327067,42.0,2.0,25.0,16.0,,157.0,30.0,6,2025-11-24 19:00:00,19,0,450.5,157.0,Severe,-0.7329677720802118,1.4294775950800507,-0.47409800412178704
India,Uttar_Pradesh,Kanpur,"NSI Kalyanpur, Kanpur - UPPCB",2025-11-24 19:00:00,26.509954,80.249612,52.0,3.0,22.0,17.0,114.0,141.0,18.0,7,2025-11-24 19:00:00,19,0,316.3488372093023,141.0,Very Poor,-0.8826550900534521,0.5186242744017442,-0.25687665024984113
India,Uttar_Pradesh,Kanpur,"Nehru Nagar, Kanpur - UPPCB",2025-11-24 19:00:00,26.4703136,80.3229863,36.0,,31.0,24.0,151.0,245.0,10.0,6,2025-11-24 19:00:00,19,0,413.375,245.0,Severe,-0.010910282065374801,-0.021800418345873738,0.2038859095128273
India,Uttar_Pradesh,Khurja,"Kalindi Kunj, Khurja - UPPCB",2025-11-24 19:00:00,28.2348927,77.8683002,47.0,1.0,7.0,170.0,294.0,301.0,15.0,7,2025-11-24 19:00:00,19,0,481.4375,301.0,Severe,1.673455975516345,-0.8436582690753546,-3.3015113575500763
India,Uttar_Pradesh,Lucknow,"B R Ambedkar University, Lucknow - UPPCB",2025-11-24 19:00:00,26.766433,80.927299,58.0,9.0,22.0,27.0,170.0,220.0,24.0,7,2025-11-24 19:00:00,19,0,376.9767441860465,220.0,Very Poor,0.47574955765440846,0.9146356330208404,0.04673817521973983
India,Uttar_Pradesh,Lucknow,"Gomti Nagar, Lucknow - UPPCB",2025-11-24 19:00:00,26.86812,81.005119,37.0,,8.0,38.0,112.0,192.0,11.0,6,2025-11-24 19:00:00,19,0,419.5625,192.0,Severe,-0.6605854510425166,-0.1504440364125655,-0.07516931368567249
India,Uttar_Pradesh,Lucknow,"Kendriya Vidyalaya, Lucknow - CPCB",2025-11-24 19:00:00,26.906111,80.948222,57.0,14.0,33.0,61.0,158.0,230.0,8.0,7,2025-11-24 19:00:00,19,0,384.6511627906977,230.0,Very Poor,1.1094591759808492,-0.6292551865938184,0.5831147661023451
India,Uttar_Pradesh,Lucknow,"Kukrail Picnic Spot-1, Lucknow - UPPCB",2025-11-24 19:00:00,26.90723,80.98579,13.0,5.0,32.0,22.0,119.0,122.0,42.0,7,2025-11-24 19:00:00,19,0,301.7674418604651,122.0,Very Poor,-1.0345236114275318,2.111040500456953,0.18737587081540105
India,Uttar_Pradesh,Lucknow,"Lalbagh, Lucknow - CPCB",2025-11-24 19:00:00,26.8458805,80.9365541,101.0,17.0,44.0,62.0,270.0,262.0,8.0,7,2025-11-24 19:00:00,19,0,403.16,270.0,Severe,2.9514567468737427,-0.5432758120225716,0.4478665011362354
India,Uttar_Pradesh,Lucknow,"Talkatora District Industries Center, Lucknow - CPCB",2025-11-24 19:00:00,26.83399722,80.8917361,11.0,12.0,54.0,40.0,185.0,179.0,9.0,7,2025-11-24 19:00:00,19,0,345.51162790697674,185.0,Very Poor,0.33308049662475026,-0.37032586313833676,1.2834147601278694
India,Uttar_Pradesh,Meerut,"Ganga Nagar, Meerut - UPPCB",2025-11-24 19:00:00,28.999264,77.7590354,41.0,5.0,74.0,73.0,329.0,282.0,25.0,7,2025-11-24 19:00:00,19,0,444.3125,329.0,Severe,2.202365167317044,0.7109796518647726,-0.7965914247661243
India,Uttar_Pradesh,Meerut,"Jai Bhim Nagar, Meerut - UPPCB",2025-11-24 19:00:00,28.9535882,77.7622941,73.0,35.0,66.0,134.0,337.0,347.0,10.0,7,2025-11-24 19:00:00,19,0,418.46,347.0,Severe,5.54462796149492,-1.1958752164186373,2.1340457529401706
India,Uttar_Pradesh,Meerut,"Pallavpuram Phase 2, Meerut - UPPCB",2025-11-24 19:00:00,29.06351,77.709723,41.0,9.0,52.0,97.0,323.0,358.0,15.0,7,2025-11-24 19:00:00,19,0,444.3125,358.0,Severe,2.6524216265179126,-0.17129271832301013,-0.8600498016695513
India,Uttar_Pradesh,Moradabad,"Buddhi Vihar, Moradabad - UPPCB",2025-11-24 19:00:00,28.83526,78.7446,53.0,5.0,29.0,18.0,136.0,141.0,77.0,7,2025-11-24 19:00:00,19,0,316.3488372093023,141.0,Very Poor,-0.10231639884520749,4.643666968431876,-0.5911444579393075
India,Uttar_Pradesh,Moradabad,"Eco Herbal Park, Moradabad - UPPCB",2025-11-24 19:00:00,28.840739,78.697531,49.0,1.0,8.0,69.0,227.0,270.0,17.0,7,2025-11-24 19:00:00,19,0,493.8125,270.0,Severe,0.4101724915042809,0.21746012459028638,-1.8122735580803107
India,Uttar_Pradesh,Moradabad,"Employment Office, Moradabad - UPPCB",2025-11-24 19:00:00,28.88528,78.7388,32.0,4.0,16.0,19.0,130.0,161.0,21.0,7,2025-11-24 19:00:00,19,0,388.2840236686391,161.0,Very Poor,-0.9526892086147942,0.7508751182836937,-0.13864033021595262
India,Uttar_Pradesh,Moradabad,"Jigar Colony, Moradabad - UPPCB",2025-11-24 19:00:00,28.856664,78.772638,40.0,6.0,25.0,21.0,106.0,91.0,38.0,7,2025-11-24 19:00:00,19,0,438.125,106.0,Severe,-0.9111407350329236,1.790792562905128,0.1511046093074484
India,Uttar_Pradesh,Moradabad,"Kashiram Nagar, Moradabad - UPPCB",2025-11-24 19:00:00,28.849399,78.742362,40.0,4.0,25.0,27.0,134.0,168.0,124.0,7,2025-11-24 19:00:00,19,0,438.125,168.0,Severe,0.0680575504050309,7.897601081508048,-1.3294279321464486
India,Uttar_Pradesh,Moradabad,"Transport Nagar, Moradabad - UPPCB",2025-11-24 19:00:00,28.802625,78.753728,34.0,5.0,30.0,43.0,115.0,137.0,35.0,7,2025-11-24 19:00:00,19,0,400.0,137.0,Very Poor,-0.5943477420594154,1.414701269982613,-0.2502217833726876
India,Uttar_Pradesh,Muzaffarnagar,"New Mandi, Muzaffarnagar - UPPCB",2025-11-24 19:00:00,29.4723508,77.7194031,59.0,14.0,89.0,16.0,189.0,314.0,22.0,7,2025-11-24 19:00:00,19,0,412.52,314.0,Severe,2.185354295786227,0.8327637510167262,1.4016852166670768
India,Uttar_Pradesh,Noida,"Sector - 125, Noida - UPPCB",2025-11-24 19:00:00,28.5447608,77.3231257,39.0,18.0,71.0,41.0,324.0,416.0,14.0,7,2025-11-24 19:00:00,19,0,431.9375,416.0,Severe,3.387767843512201,0.26093308478297217,1.224587582244307
India,Uttar_Pradesh,Noida,"Sector - 62, Noida - IMD",2025-11-24 19:00:00,28.6245479,77.3577104,47.0,,77.0,75.0,325.0,366.0,,5,2025-11-24 19:00:00,19,0,481.4375,366.0,Severe,2.7798412101706265,0.0897431885731744,-0.6776656799166666
India,Uttar_Pradesh,Noida,"Sector-1, Noida - UPPCB",2025-11-24 19:00:00,28.5898,77.3101,55.0,19.0,143.0,108.0,374.0,399.0,22.0,7,2025-11-24 19:00:00,19,0,427.82,399.0,Severe,5.4139204468830116,0.042353247834377154,1.0050652388043475
India,Uttar_Pradesh,Noida,"Sector-116, Noida - UPPCB",2025-11-24 19:00:00,28.56923,77.393848,68.0,10.0,49.0,106.0,393.0,,,5,2025-11-24 19:00:00,19,0,353.63291139240505,393.0,Very Poor,2.679965929174799,-0.3401240276545725,-0.8238121410182576
India,Uttar_Pradesh,Prayagraj,"Jhunsi, Prayagraj - UPPCB",2025-11-24 19:00:00,25.425602,81.917152,47.0,5.0,6.0,22.0,186.0,145.0,9.0,7,2025-11-24 19:00:00,19,0,481.4375,186.0,Severe,-0.5786096970499609,-0.07254725863494582,-0.22233093944083887
India,Uttar_Pradesh,Prayagraj,"Motilal Nehru NIT, Prayagraj - UPPCB",2025-11-24 19:00:00,25.494,81.863,38.0,8.0,12.0,37.0,137.0,149.0,34.0,7,2025-11-24 19:00:00,19,0,425.75,149.0,Severe,-0.40639981510717416,1.440593469889455,-0.05111708687053791
India,Uttar_Pradesh,Prayagraj,"Nagar Nigam, Prayagraj - UPPCB",2025-11-24 19:00:00,25.44919916,81.82735986,50.0,,,13.0,,,,2,2025-11-24 19:00:00,19,0,500.0,50.0,Severe,-0.17305595639145782,0.3867629392627042,0.4319178275548161
India,Uttar_Pradesh,Varanasi,"Ardhali Bazar, Varanasi - UPPCB",2025-11-24 19:00:00,25.3505986,82.9083074,14.0,,93.0,13.0,137.0,94.0,10.0,6,2025-11-24 19:00:00,19,0,256.95652173913044,137.0,Poor,-0.3960698137598442,-0.1755154485727626,1.589505827405356
India,Uttar_Pradesh,Varanasi,"Bhelupur, Varanasi - UPPCB",2025-11-24 19:00:00,25.301778,82.996789,31.0,1.0,8.0,2.0,115.0,155.0,28.0,7,2025-11-24 19:00:00,19,0,382.4260355029586,155.0,Very Poor,-1.4994092696906063,1.4380604981295417,-0.4405309308919993
India,Uttar_Pradesh,Varanasi,"IESD Banaras Hindu University, Varanasi - UPPCB",2025-11-24 19:00:00,25.262326,82.995408,18.0,3.0,2.0,25.0,141.0,152.0,30.0,7,2025-11-24 19:00:00,19,0,324.7906976744186,152.0,Very Poor,-1.2840248377807892,1.3628463360038772,-0.4819762669531122
India,Uttar_Pradesh,Varanasi,"Maldahiya, Varanasi - UPPCB",2025-11-24 19:00:00,25.32393,82.99687,33.0,,2.0,6.0,104.0,124.0,28.0,6,2025-11-24 19:00:00,19,0,394.14201183431953,124.0,Very Poor,-1.2923057919291527,1.3044969624142297,0.29641113873879404
India,Uttar_Pradesh,Vrindavan,"Omex Eternity, Vrindavan - UPPCB",2025-11-24 19:00:00,27.571409,77.655757,46.0,3.0,12.0,15.0,142.0,102.0,12.0,7,2025-11-24 19:00:00,19,0,475.25,142.0,Severe,-1.1646810574555975,0.12881365373307005,-0.18975083987679908
India,Uttarakhand,Dehradun,"Doon University, Dehradun - UKPCB",2025-11-24 19:00:00,30.269444,78.044167,36.0,,2.0,56.0,79.0,130.0,2.0,6,2025-11-24 19:00:00,19,0,413.375,130.0,Severe,-1.159558985040005,-1.0530159580935528,-0.08393750058360518
India,Uttarakhand,Kashipur,"Govt. Girls Inter College, Kashipur - UKPCB",2025-11-24 19:00:00,29.2124114,78.9611753,35.0,5.0,16.0,2.0,106.0,144.0,8.0,7,2025-11-24 19:00:00,19,0,407.1875,144.0,Severe,-1.2712610923251046,-0.04367119132151076,0.412424820401446
India,Uttarakhand,Rishikesh,"Shivaji Nagar, Rishikesh - UKPCB",2025-11-24 19:00:00,30.075911,78.2859547,31.0,7.0,15.0,34.0,88.0,101.0,5.0,7,2025-11-24 19:00:00,19,0,382.4260355029586,101.0,Very Poor,-1.274320730388727,-0.6606118777611489,0.4442863015110061
India,West_Bengal,Asansol,"Asansol Court Area, Asansol - WBPCB",2025-11-24 19:00:00,23.685297,86.945968,45.0,5.0,23.0,60.0,132.0,213.0,20.0,7,2025-11-24 19:00:00,19,0,469.0625,213.0,Severe,-0.038706764125095244,0.2914903369252003,-0.685699602304649
India,West_Bengal,Asansol,"Evelyn Lodge, Asansol - WBPCB",2025-11-24 19:00:00,23.697936,86.944395,28.0,3.0,23.0,41.0,131.0,193.0,13.0,7,2025-11-24 19:00:00,19,0,364.85207100591714,193.0,Very Poor,-0.7263766975843743,-0.002955876650955248,-0.43811607179129824
India,West_Bengal,Asansol,"Mahabir Colliery, Asansol - WBPCB",2025-11-24 19:00:00,23.618183,87.105718,52.0,1.0,32.0,45.0,139.0,283.0,9.0,7,2025-11-24 19:00:00,19,0,406.94,283.0,Severe,0.05749562107724874,-0.2270860175277927,-1.0435839667866316
India,West_Bengal,Asansol,"Trivenidevi Bhalotia College, Asansol - WBPCB",2025-11-24 19:00:00,23.616515,87.119133,48.0,6.0,36.0,68.0,136.0,199.0,8.0,7,2025-11-24 19:00:00,19,0,487.625,199.0,Severe,0.19097084784373697,-0.6754335156609587,-0.38507586154237156
India,West_Bengal,Barrackpore,"SVSPA Campus, Barrackpore - WBPCB",2025-11-24 19:00:00,22.7605581,88.3617589,55.0,7.0,26.0,37.0,119.0,166.0,10.0,7,2025-11-24 19:00:00,19,0,335.5348837209302,166.0,Very Poor,-0.23933191177949417,-0.2657280887440269,0.06664075889037202
India,West_Bengal,Durgapur,"Mahishkapur Road_B-Zone, Durgapur - WBPCB",2025-11-24 19:00:00,23.567923,87.306843,57.0,2.0,27.0,85.0,153.0,143.0,24.0,7,2025-11-24 19:00:00,19,0,317.8837209302326,153.0,Very Poor,-0.017896085784344085,0.2940323397012898,-1.415816065279827
India,West_Bengal,Durgapur,"PCBL Residential Complex, Durgapur - WBPCB",2025-11-24 19:00:00,23.508764,87.35444,49.0,7.0,21.0,23.0,109.0,117.0,4.0,7,2025-11-24 19:00:00,19,0,493.8125,117.0,Severe,-0.8239735479085893,-0.5941163594779882,0.43594537562522756
India,West_Bengal,Durgapur,"Womens College_City Center, Durgapur - WBPCB (Formerly known as Sidhu Kanhu Indoor Stadium)",2025-11-24 19:00:00,23.549395,87.300496,44.0,2.0,24.0,44.0,144.0,138.0,20.0,7,2025-11-24 19:00:00,19,0,462.875,144.0,Severe,-0.6625430119642215,0.42350426808223923,-0.7235996548100473
India,West_Bengal,Haldia,"Priyambada Housing Estate, Haldia - WBPCB",2025-11-24 19:00:00,22.06047,88.109737,36.0,3.0,27.0,31.0,154.0,255.0,15.0,7,2025-11-24 19:00:00,19,0,413.375,255.0,Severe,-0.19608254040181383,0.3172876227960167,-0.5279155282707908
India,West_Bengal,Howrah,"Belur Math, Howrah - WBPCB",2025-11-24 19:00:00,22.629801,88.352017,36.0,10.0,32.0,37.0,153.0,290.0,10.0,7,2025-11-24 19:00:00,19,0,413.375,290.0,Severe,0.5653346785973602,-0.14294268794912596,0.38582221758306223
India,West_Bengal,Howrah,"Botanical Garden, Howrah - WBPCB",2025-11-24 19:00:00,22.554954,88.292568,27.0,3.0,12.0,37.0,109.0,124.0,11.0,7,2025-11-24 19:00:00,19,0,358.9940828402367,124.0,Very Poor,-1.3781613460206492,-0.17607827887813768,-0.2906822468050939
India,West_Bengal,Howrah,"Dasnagar, Howrah - WBPCB",2025-11-24 19:00:00,22.6025571,88.3105664,43.0,2.0,48.0,123.0,143.0,217.0,12.0,7,2025-11-24 19:00:00,19,0,456.6875,217.0,Severe,0.5425055468407773,-0.9065797147746346,-1.5733445924450145
India,West_Bengal,Howrah,"Ghusuri, Howrah - WBPCB",2025-11-24 19:00:00,22.611968,88.347422,21.0,11.0,26.0,27.0,136.0,175.0,8.0,7,2025-11-24 19:00:00,19,0,342.4418604651163,175.0,Very Poor,-0.37854789884052575,-0.3105656582033272,1.0205738682925705
India,West_Bengal,Howrah,"Padmapukur, Howrah - WBPCB",2025-11-24 19:00:00,22.5687319,88.2797276,25.0,6.0,26.0,82.0,,,9.0,5,2025-11-24 19:00:00,19,0,347.27810650887574,82.0,Very Poor,-0.2700173652022573,-0.7503352353620704,-0.42655510524353574
India,West_Bengal,Kolkata,"Ballygunge, Kolkata - WBPCB",2025-11-24 19:00:00,22.5367507,88.3638022,37.0,9.0,47.0,50.0,133.0,152.0,13.0,7,2025-11-24 19:00:00,19,0,419.5625,152.0,Severe,0.059073874871140956,-0.2382887648103895,0.5378553828362089
India,West_Bengal,Kolkata,"Bidhannagar, Kolkata - WBPCB",2025-11-24 19:00:00,22.58157048,88.41002457,65.0,9.0,18.0,30.0,121.0,113.0,9.0,7,2025-11-24 19:00:00,19,0,276.1034482758621,121.0,Poor,-0.33861296492985915,-0.3240434573990742,0.3760751974915269
India,West_Bengal,Kolkata,"Fort William, Kolkata - WBPCB",2025-11-24 19:00:00,22.55664,88.342674,31.0,7.0,9.0,64.0,146.0,203.0,12.0,7,2025-11-24 19:00:00,19,0,382.4260355029586,203.0,Very Poor,-0.2561443529371655,-0.2989947962201704,-0.4148180486955132
India,West_Bengal,Kolkata,"Jadavpur, Kolkata - WBPCB",2025-11-24 19:00:00,22.49929,88.36917,28.0,8.0,70.0,35.0,225.0,282.0,4.0,7,2025-11-24 19:00:00,19,0,406.76,282.0,Severe,1.132631112492722,-0.514306835199044,0.5903788120236763
India,West_Bengal,Kolkata,"Rabindra Bharati University, Kolkata - WBPCB",2025-11-24 19:00:00,22.627847,88.380669,41.0,12.0,52.0,80.0,132.0,152.0,8.0,7,2025-11-24 19:00:00,19,0,444.3125,152.0,Severe,0.5986206526827319,-0.9365583812732714,0.6275230285272619
India,West_Bengal,Kolkata,"Rabindra Sarobar, Kolkata - WBPCB",2025-11-24 19:00:00,22.51106,88.35142,49.0,12.0,121.0,91.0,104.0,111.0,9.0,7,2025-11-24 19:00:00,19,0,493.8125,121.0,Severe,1.3391703079257413,-1.1699269739755243,1.310030858335882
India,West_Bengal,Kolkata,"Victoria, Kolkata - WBPCB",2025-11-24 19:00:00,22.5448082,88.3403691,23.0,4.0,18.0,38.0,148.0,301.0,13.0,7,2025-11-24 19:00:00,19,0,410.18,301.0,Severe,-0.21002042308377167,0.15218368690572456,-0.5363929314519453
India,West_Bengal,Siliguri,"Ward-32 Bapupara, Siliguri - WBPCB",2025-11-24 19:00:00,26.6879226,88.4152495,40.0,11.0,24.0,64.0,101.0,117.0,15.0,7,2025-11-24 19:00:00,19,0,438.125,117.0,Severe,-0.2786830146919673,-0.29242792375800986,0.452966118419123
